{"type":"FeatureCollection","features":[{"type":"Feature","geometry":{"type":"LineString","coordinates":[[3.69653,43.41277],[3.69598,43.41267],[3.69575,43.41262],[3.69543,43.41256],[3.69513,43.41251],[3.69489,43.41248],[3.69464,43.41245],[3.69454,43.41244],[3.69443,43.41243],[3.69423,43.41241],[3.69406,43.4124],[3.69383,43.41239],[3.69361,43.41238],[3.69348,43.41237],[3.69337,43.41236],[3.69322,43.41235],[3.69322,43.41235],[3.69301,43.41232],[3.69279,43.41229],[3.69265,43.41227],[3.69173,43.41213],[3.6905,43.41195],[3.69029,43.41192],[3.69007,43.4119],[3.68986,43.41189],[3.68967,43.41188],[3.68948,43.41188],[3.68926,43.41188],[3.6891,43.41189],[3.68891,43.41191],[3.68873,43.41193],[3.68854,43.41196],[3.68839,43.41198],[3.68821,43.41202],[3.68788,43.41209],[3.68734,43.41224],[3.68643,43.41247],[3.68559,43.41268],[3.68559,43.41268],[3.68468,43.41292],[3.68372,43.41316],[3.68309,43.41332],[3.68273,43.41341],[3.68268,43.41342],[3.6824,43.41349],[3.68172,43.41366],[3.68106,43.41383],[3.68064,43.41392],[3.6801,43.41404],[3.6798,43.41409],[3.67946,43.41415],[3.67913,43.4142],[3.67891,43.41423],[3.67867,43.41426],[3.67827,43.4143],[3.6779,43.41433],[3.67762,43.41435],[3.67729,43.41437],[3.67705,43.41438],[3.6768,43.41438],[3.6765,43.41439],[3.67623,43.41439],[3.67588,43.41439],[3.67565,43.41438],[3.67541,43.41437],[3.67512,43.41435],[3.67456,43.41431],[3.67414,43.41427],[3.67371,43.41422],[3.67335,43.41417],[3.67295,43.41411],[3.67238,43.41401],[3.67186,43.4139],[3.67164,43.41385],[3.67134,43.41377],[3.67084,43.41363],[3.67043,43.41351],[3.66987,43.41332],[3.6693,43.41311],[3.66892,43.41296],[3.66853,43.41279],[3.66785,43.41247],[3.66732,43.41219],[3.66675,43.41186],[3.6665,43.41171],[3.66625,43.41154],[3.66573,43.41118],[3.66543,43.41094],[3.66511,43.41069],[3.66483,43.41045],[3.66455,43.41019],[3.66431,43.40997],[3.66409,43.40974],[3.66386,43.4095],[3.66365,43.40926],[3.66337,43.40893],[3.66313,43.4086],[3.66257,43.40782],[3.66214,43.40721],[3.6617,43.40657],[3.661,43.40559],[3.66031,43.40461],[3.65893,43.40264],[3.65827,43.40168],[3.65818,43.40157],[3.65813,43.40149],[3.65801,43.40133],[3.65632,43.39892],[3.6545,43.39635],[3.65233,43.39326],[3.65119,43.39167],[3.65088,43.39127],[3.65056,43.39089],[3.64988,43.39014],[3.64953,43.38977],[3.64916,43.38942],[3.64878,43.38906],[3.64798,43.38838],[3.64713,43.38772],[3.64625,43.3871],[3.64577,43.3868],[3.64507,43.38635],[3.64251,43.38476],[3.6397,43.38299],[3.63113,43.37765],[3.62493,43.37376],[3.6183,43.36964],[3.61365,43.36673],[3.60639,43.36222],[3.59913,43.35768],[3.5935,43.35417],[3.58928,43.35154],[3.5879,43.35065],[3.58701,43.35003],[3.58613,43.34942],[3.58386,43.34769],[3.58369,43.34756],[3.58068,43.34526],[3.57753,43.34283],[3.57685,43.34232],[3.57623,43.34184],[3.57623,43.34184],[3.57542,43.34121],[3.5674,43.33505],[3.56609,43.33409],[3.5652,43.33347],[3.56429,43.33285],[3.56337,43.33225],[3.5629,43.33196],[3.56195,43.33138],[3.56099,43.33082],[3.56001,43.33027],[3.55851,43.32949],[3.55749,43.32898],[3.5534,43.32696],[3.55186,43.32621],[3.54817,43.3244],[3.54786,43.32425],[3.54165,43.32119],[3.5386,43.31968],[3.53554,43.31818],[3.53551,43.31816],[3.53463,43.31774],[3.5337,43.31733],[3.53274,43.31694],[3.53191,43.31664],[3.53106,43.31636],[3.5302,43.31611],[3.52933,43.31588],[3.52861,43.31571],[3.52788,43.31556],[3.51764,43.31363],[3.5097,43.31213],[3.50588,43.31141],[3.50349,43.31096],[3.50242,43.31076],[3.50157,43.31063],[3.50088,43.31055],[3.5002,43.3105],[3.49953,43.31046],[3.49892,43.31045],[3.49818,43.31046],[3.49743,43.31049],[3.49659,43.31055],[3.49567,43.31067],[3.49475,43.31082],[3.49391,43.31101],[3.49314,43.31121],[3.49251,43.3114],[3.49182,43.31164],[3.49107,43.31193],[3.49032,43.31226],[3.48967,43.31258],[3.48912,43.31287],[3.48856,43.31321],[3.48806,43.31353],[3.48749,43.31394],[3.48563,43.31535],[3.485,43.31583],[3.48456,43.31615],[3.4841,43.31645],[3.48363,43.31673],[3.48313,43.317],[3.48262,43.31724],[3.48208,43.31747],[3.48151,43.3177],[3.48092,43.31789],[3.48031,43.31807],[3.47975,43.31821],[3.47916,43.31833],[3.47851,43.31844],[3.47792,43.31851],[3.47732,43.31857],[3.47676,43.3186],[3.47619,43.31861],[3.47587,43.3186],[3.47553,43.31859],[3.47505,43.31856],[3.47448,43.31851],[3.47357,43.31841],[3.47198,43.3182],[3.46934,43.31787],[3.46851,43.31776],[3.46843,43.31775],[3.46827,43.31773],[3.46808,43.3177],[3.46798,43.31769],[3.46789,43.31768],[3.46789,43.31768],[3.46609,43.31744],[3.46609,43.31744]]},"properties":{"name":"Ligne de Bordeaux-Saint-Jean à Sète-Ville, Ligne de Bordeaux-Saint-Jean à Sète-Ville"}}]}