{"type":"FeatureCollection","features":[{"type":"Feature","geometry":{"type":"LineString","coordinates":[[3.88035,43.60422],[3.87958,43.60367],[3.87929,43.60347],[3.87919,43.60339],[3.879,43.60324],[3.87891,43.60316],[3.87882,43.60308],[3.87864,43.60291],[3.87843,43.60271],[3.87826,43.60251],[3.87826,43.60251],[3.87807,43.60229],[3.87797,43.60218],[3.87792,43.60211],[3.87785,43.60203],[3.87778,43.60192],[3.87775,43.60187],[3.8777,43.60177],[3.87748,43.60131],[3.87745,43.60123],[3.87745,43.60123],[3.87741,43.60111],[3.87739,43.60104],[3.87737,43.60095],[3.87735,43.60089],[3.87734,43.6008],[3.87728,43.60042],[3.87727,43.60032],[3.87726,43.60026],[3.87725,43.60021],[3.87724,43.60011],[3.87723,43.59989],[3.8772,43.59759],[3.8772,43.59755],[3.8772,43.59755],[3.87719,43.59684],[3.87719,43.59637],[3.87719,43.59611],[3.87719,43.59611],[3.87717,43.59541],[3.87715,43.59421],[3.87714,43.59344],[3.87713,43.59218],[3.87711,43.59107],[3.87711,43.59069],[3.8771,43.59032],[3.87708,43.58986],[3.87704,43.58929],[3.877,43.58896],[3.87696,43.58861],[3.87693,43.58836],[3.87689,43.58813],[3.87686,43.58788],[3.87682,43.58765],[3.87677,43.58741],[3.87668,43.58695],[3.87663,43.5867],[3.87657,43.58644],[3.8765,43.58614],[3.87646,43.586],[3.87643,43.58585],[3.87636,43.58562],[3.87626,43.58526],[3.87616,43.58492],[3.87608,43.58467],[3.87599,43.58442],[3.87596,43.58432],[3.87587,43.58407],[3.87578,43.58384],[3.87568,43.58359],[3.87562,43.58343],[3.87555,43.58326],[3.87544,43.58298],[3.87535,43.58278],[3.87526,43.58257],[3.87516,43.58235],[3.87505,43.58212],[3.87492,43.58185],[3.87484,43.58169],[3.87474,43.5815],[3.87466,43.58133],[3.87453,43.5811],[3.87441,43.58086],[3.87431,43.58069],[3.87422,43.58053],[3.87406,43.58026],[3.87389,43.57998],[3.87359,43.5795],[3.87356,43.57945],[3.87259,43.57798],[3.87138,43.57615],[3.87121,43.57589],[3.87047,43.57478],[3.86943,43.5732],[3.86878,43.57224],[3.86804,43.57112],[3.8673,43.57],[3.86548,43.56725],[3.86491,43.56639],[3.86443,43.56567],[3.86407,43.56513],[3.86368,43.56454],[3.86334,43.56403],[3.8633,43.56397],[3.86263,43.56297],[3.86216,43.56223],[3.86168,43.56152],[3.86119,43.56078],[3.86096,43.56043],[3.86055,43.55982],[3.85934,43.55797],[3.85909,43.5576],[3.85909,43.5576],[3.85852,43.55676],[3.8569,43.5543],[3.85543,43.55209],[3.85452,43.55072],[3.85422,43.55029],[3.85401,43.55001],[3.85379,43.54973],[3.85324,43.54904],[3.85299,43.54871],[3.85275,43.54836],[3.85241,43.54785],[3.85209,43.54735],[3.85152,43.5465],[3.85125,43.54606],[3.85091,43.54545],[3.85052,43.54473],[3.85037,43.54448],[3.85021,43.54422],[3.84989,43.54371],[3.84988,43.54371],[3.84851,43.54163],[3.8473,43.53981],[3.84628,43.53826],[3.84525,43.5367],[3.84486,43.53613],[3.84447,43.53558],[3.84431,43.53536],[3.84409,43.53507],[3.84366,43.53452],[3.8432,43.53397],[3.84286,43.53358],[3.8425,43.53318],[3.84217,43.53283],[3.84178,43.53242],[3.84134,43.53198],[3.84099,43.53165],[3.84063,43.53132],[3.84019,43.53092],[3.83971,43.53051],[3.83903,43.52994],[3.83843,43.52948],[3.83798,43.52914],[3.83751,43.52879],[3.83743,43.52873],[3.83599,43.52767],[3.83363,43.52594],[3.83251,43.52511],[3.83164,43.52448],[3.82945,43.52286],[3.82723,43.52123],[3.82282,43.51797],[3.8201,43.51598],[3.81855,43.51484],[3.81641,43.51326],[3.81425,43.51167],[3.81211,43.51009],[3.81084,43.50915],[3.80911,43.50788],[3.80738,43.50661],[3.80735,43.50658],[3.80596,43.50555],[3.80375,43.50393],[3.80306,43.50342],[3.80139,43.50219],[3.80056,43.50158],[3.80048,43.50152],[3.80015,43.50128],[3.79947,43.50076],[3.79946,43.50075],[3.79874,43.50018],[3.79809,43.49965],[3.79734,43.49903],[3.79645,43.49828],[3.79608,43.49796],[3.79561,43.49752],[3.79516,43.49708],[3.79443,43.49633],[3.79368,43.49556],[3.79317,43.49501],[3.79271,43.49451],[3.79228,43.49401],[3.79182,43.49348],[3.79135,43.4929],[3.79129,43.49283],[3.79106,43.49255],[3.79098,43.49244],[3.79032,43.4916],[3.78968,43.49073],[3.78946,43.49043],[3.78886,43.48962],[3.78857,43.48923],[3.78743,43.4877],[3.78629,43.48616],[3.784,43.48308],[3.7809,43.47891],[3.77872,43.47598],[3.77615,43.47252],[3.77521,43.47125],[3.77386,43.46943],[3.7726,43.46774],[3.77126,43.46593],[3.76866,43.46243],[3.76773,43.46117],[3.7668,43.45992],[3.76513,43.45767],[3.76402,43.45617],[3.76351,43.45549],[3.76301,43.4548],[3.76278,43.45448],[3.76253,43.45412],[3.76231,43.45377],[3.76213,43.45349],[3.76194,43.45316],[3.76174,43.45283],[3.76157,43.45251],[3.76133,43.45204],[3.76111,43.45158],[3.76088,43.4511],[3.76048,43.4502],[3.76032,43.4498],[3.76016,43.44939],[3.76004,43.44904],[3.75991,43.44867],[3.75982,43.44841],[3.75973,43.44811],[3.75964,43.44778],[3.75954,43.44741],[3.75943,43.44697],[3.7593,43.44643],[3.75924,43.4461],[3.75918,43.44582],[3.75913,43.44555],[3.75911,43.44547],[3.7591,43.44543],[3.75899,43.44486],[3.75891,43.44443],[3.75884,43.44407],[3.75871,43.44341],[3.75869,43.44332],[3.75856,43.44265],[3.75856,43.44265],[3.75838,43.44179],[3.75825,43.44116],[3.75802,43.43996],[3.75798,43.43979],[3.75785,43.4391],[3.75763,43.43798],[3.7575,43.43734],[3.75742,43.43692],[3.75732,43.4365],[3.75725,43.43621],[3.75716,43.43591],[3.75705,43.43556],[3.75694,43.43523],[3.7568,43.43486],[3.75668,43.43456],[3.75655,43.43426],[3.75638,43.43388],[3.75619,43.4335],[3.75596,43.43305],[3.75578,43.43273],[3.75558,43.4324],[3.75536,43.43205],[3.75516,43.43175],[3.75494,43.43143],[3.75475,43.43116],[3.75455,43.4309],[3.75432,43.4306],[3.75411,43.43035],[3.75383,43.43002],[3.75349,43.42964],[3.75326,43.42939],[3.75295,43.42907],[3.75259,43.42872],[3.75224,43.42839],[3.75201,43.42819],[3.75165,43.42788],[3.75142,43.42768],[3.75109,43.42742],[3.7508,43.4272],[3.7506,43.42705],[3.75039,43.4269],[3.75016,43.42673],[3.7499,43.42655],[3.74942,43.42623],[3.74901,43.42597],[3.74872,43.42579],[3.74828,43.42553],[3.7479,43.42532],[3.74749,43.4251],[3.74719,43.42494],[3.74684,43.42477],[3.74632,43.42452],[3.746,43.42437],[3.74562,43.42421],[3.74516,43.42402],[3.74484,43.4239],[3.74454,43.4238],[3.74421,43.42368],[3.7437,43.42351],[3.74275,43.42321],[3.74146,43.42281],[3.74032,43.42244],[3.73949,43.42217],[3.73809,43.4217],[3.73719,43.4214],[3.73687,43.4213],[3.7355,43.42085],[3.73507,43.42072],[3.73507,43.42072],[3.73477,43.42063],[3.73433,43.42051],[3.73373,43.42035],[3.73343,43.42027],[3.73312,43.4202],[3.73282,43.42013],[3.7325,43.42006],[3.7315,43.41984],[3.73139,43.41982],[3.73139,43.41982],[3.73045,43.41962],[3.72971,43.41946],[3.7281,43.41914],[3.72612,43.41875],[3.72412,43.41836],[3.7233,43.4182],[3.72317,43.41817],[3.72293,43.41812],[3.72227,43.41799],[3.72204,43.41795],[3.72204,43.41795],[3.7211,43.41776],[3.72019,43.41759],[3.71833,43.41722],[3.71568,43.41669],[3.71453,43.41646],[3.71238,43.41603],[3.71021,43.4156],[3.7089,43.41535],[3.70793,43.41516],[3.70717,43.41502],[3.70693,43.41497],[3.70635,43.41486],[3.7063,43.41485],[3.7063,43.41485],[3.70536,43.41466],[3.7039,43.41437],[3.70365,43.41432],[3.70253,43.4141],[3.70253,43.4141],[3.70197,43.41399],[3.70142,43.41388],[3.70067,43.41371],[3.69896,43.41332],[3.69785,43.41307],[3.69714,43.41293],[3.69655,43.41281],[3.69655,43.41281],[3.69596,43.4127],[3.69536,43.41259],[3.69515,43.41255],[3.69499,43.41253],[3.69488,43.41251],[3.69475,43.4125],[3.69454,43.41248],[3.69394,43.41243],[3.69366,43.4124],[3.69345,43.41238],[3.69322,43.41235],[3.69301,43.41232],[3.69279,43.41229],[3.69265,43.41227],[3.69173,43.41213],[3.6905,43.41195],[3.69029,43.41192],[3.69007,43.4119],[3.68986,43.41189],[3.68967,43.41188],[3.68948,43.41188],[3.68926,43.41188],[3.6891,43.41189],[3.68891,43.41191],[3.68873,43.41193],[3.68854,43.41196],[3.68839,43.41198],[3.68821,43.41202],[3.68788,43.41209],[3.68734,43.41224],[3.68643,43.41247],[3.68559,43.41268],[3.68559,43.41268],[3.68468,43.41292],[3.68372,43.41316],[3.68309,43.41332],[3.68273,43.41341],[3.68268,43.41342],[3.6824,43.41349],[3.68172,43.41366],[3.68106,43.41383],[3.68064,43.41392],[3.6801,43.41404],[3.6798,43.41409],[3.67946,43.41415],[3.67913,43.4142],[3.67891,43.41423],[3.67867,43.41426],[3.67827,43.4143],[3.6779,43.41433],[3.67762,43.41435],[3.67729,43.41437],[3.67705,43.41438],[3.6768,43.41438],[3.6765,43.41439],[3.67623,43.41439],[3.67588,43.41439],[3.67565,43.41438],[3.67541,43.41437],[3.67512,43.41435],[3.67456,43.41431],[3.67414,43.41427],[3.67371,43.41422],[3.67335,43.41417],[3.67295,43.41411],[3.67238,43.41401],[3.67186,43.4139],[3.67164,43.41385],[3.67134,43.41377],[3.67084,43.41363],[3.67043,43.41351],[3.66987,43.41332],[3.6693,43.41311],[3.66892,43.41296],[3.66853,43.41279],[3.66785,43.41247],[3.66732,43.41219],[3.66675,43.41186],[3.6665,43.41171],[3.66625,43.41154],[3.66573,43.41118],[3.66543,43.41094],[3.66511,43.41069],[3.66483,43.41045],[3.66455,43.41019],[3.66431,43.40997],[3.66409,43.40974],[3.66386,43.4095],[3.66365,43.40926],[3.66337,43.40893],[3.66313,43.4086],[3.66257,43.40782],[3.66214,43.40721],[3.6617,43.40657],[3.661,43.40559],[3.66031,43.40461],[3.65893,43.40264],[3.65827,43.40168],[3.65818,43.40157],[3.65813,43.40149],[3.65801,43.40133],[3.65632,43.39892],[3.6545,43.39635],[3.65233,43.39326],[3.65119,43.39167],[3.65088,43.39127],[3.65056,43.39089],[3.64988,43.39014],[3.64953,43.38977],[3.64916,43.38942],[3.64878,43.38906],[3.64798,43.38838],[3.64713,43.38772],[3.64625,43.3871],[3.64577,43.3868],[3.64507,43.38635],[3.64251,43.38476],[3.6397,43.38299],[3.63113,43.37765],[3.62493,43.37376],[3.6183,43.36964],[3.61365,43.36673],[3.60639,43.36222],[3.59913,43.35768],[3.5935,43.35417],[3.58928,43.35154],[3.5879,43.35065],[3.58701,43.35003],[3.58613,43.34942],[3.58386,43.34769],[3.58369,43.34756],[3.58068,43.34526],[3.57753,43.34283],[3.57685,43.34232],[3.57623,43.34184],[3.57623,43.34184],[3.57542,43.34121],[3.5674,43.33505],[3.56609,43.33409],[3.5652,43.33347],[3.56429,43.33285],[3.56337,43.33225],[3.5629,43.33196],[3.56195,43.33138],[3.56099,43.33082],[3.56001,43.33027],[3.55851,43.32949],[3.55749,43.32898],[3.5534,43.32696],[3.55186,43.32621],[3.54817,43.3244],[3.54786,43.32425],[3.54165,43.32119],[3.5386,43.31968],[3.53554,43.31818],[3.53551,43.31816],[3.53463,43.31774],[3.5337,43.31733],[3.53274,43.31694],[3.53191,43.31664],[3.53106,43.31636],[3.5302,43.31611],[3.52933,43.31588],[3.52861,43.31571],[3.52788,43.31556],[3.51764,43.31363],[3.5097,43.31213],[3.50588,43.31141],[3.50349,43.31096],[3.50242,43.31076],[3.50157,43.31063],[3.50088,43.31055],[3.5002,43.3105],[3.49953,43.31046],[3.49892,43.31045],[3.49818,43.31046],[3.49743,43.31049],[3.49659,43.31055],[3.49567,43.31067],[3.49475,43.31082],[3.49391,43.31101],[3.49314,43.31121],[3.49251,43.3114],[3.49182,43.31164],[3.49107,43.31193],[3.49032,43.31226],[3.48967,43.31258],[3.48912,43.31287],[3.48856,43.31321],[3.48806,43.31353],[3.48749,43.31394],[3.48563,43.31535],[3.485,43.31583],[3.48456,43.31615],[3.4841,43.31645],[3.48363,43.31673],[3.48313,43.317],[3.48262,43.31724],[3.48208,43.31747],[3.48151,43.3177],[3.48092,43.31789],[3.48031,43.31807],[3.47975,43.31821],[3.47916,43.31833],[3.47851,43.31844],[3.47792,43.31851],[3.47732,43.31857],[3.47676,43.3186],[3.47619,43.31861],[3.47587,43.3186],[3.47553,43.31859],[3.47505,43.31856],[3.47448,43.31851],[3.47357,43.31841],[3.47198,43.3182],[3.46934,43.31787],[3.46851,43.31776],[3.46843,43.31775],[3.46827,43.31773],[3.46808,43.3177],[3.46798,43.31769],[3.46789,43.31768],[3.46789,43.31768],[3.46609,43.31744],[3.46609,43.31744]]},"properties":{"name":"Ligne de Tarascon à Sète, Ligne de Bordeaux-Saint-Jean à Sète-Ville"}}]}