{"type":"FeatureCollection","features":[{"type":"Feature","geometry":{"type":"LineString","coordinates":[[3.88036,43.60422],[3.88147,43.60501],[3.88166,43.60515],[3.88176,43.60522],[3.88184,43.60529],[3.88193,43.60536],[3.88196,43.6054],[3.88203,43.60546],[3.88214,43.60556],[3.88232,43.60571],[3.88238,43.60578],[3.8824,43.6058],[3.88247,43.60586],[3.88258,43.60601],[3.88273,43.60621],[3.88278,43.60629],[3.88286,43.60639],[3.88301,43.6066],[3.88304,43.60666],[3.88308,43.60673],[3.88314,43.60684],[3.88314,43.60684],[3.88321,43.60701],[3.88328,43.60719],[3.88335,43.60739],[3.88337,43.60746],[3.88339,43.60753],[3.88341,43.60759],[3.88343,43.60769],[3.88344,43.60773],[3.88344,43.60773],[3.88346,43.60782],[3.88347,43.60791],[3.88349,43.60805],[3.88351,43.60824],[3.88351,43.60852],[3.8835,43.60876],[3.8835,43.60879],[3.88348,43.60896],[3.88346,43.60913],[3.88342,43.6093],[3.88316,43.61055],[3.883,43.61131],[3.88293,43.61168],[3.88286,43.61204],[3.88283,43.61226],[3.88282,43.61236],[3.88281,43.61246],[3.88281,43.6126],[3.88281,43.6127],[3.88282,43.61281],[3.88282,43.61292],[3.88284,43.61304],[3.88286,43.61316],[3.88288,43.61329],[3.8829,43.61338],[3.88297,43.61359],[3.88302,43.61373],[3.88306,43.61384],[3.8831,43.61394],[3.88314,43.61403],[3.88321,43.61418],[3.88329,43.61432],[3.88333,43.61439],[3.88338,43.61447],[3.88346,43.61459],[3.88354,43.6147],[3.88364,43.61482],[3.88371,43.61492],[3.88376,43.61498],[3.88388,43.6151],[3.88399,43.61522],[3.8841,43.61533],[3.88432,43.61555],[3.88534,43.61651],[3.88656,43.61766],[3.88777,43.61881],[3.88797,43.61899],[3.88818,43.6192],[3.88825,43.61926],[3.88843,43.61943],[3.89094,43.62181],[3.89142,43.62227],[3.89169,43.62252],[3.89192,43.62272],[3.8923,43.62304],[3.89276,43.62339],[3.8932,43.62372],[3.89369,43.62405],[3.8942,43.62437],[3.89459,43.6246],[3.89465,43.62464],[3.89494,43.6248],[3.89525,43.62497],[3.89584,43.62526],[3.89632,43.62549],[3.89681,43.6257],[3.89706,43.62581],[3.89732,43.62591],[3.89791,43.62613],[3.89832,43.62627],[3.89919,43.62656],[3.89931,43.6266],[3.89935,43.62661],[3.90005,43.62684],[3.90039,43.62695],[3.90472,43.62835],[3.90477,43.62837],[3.90518,43.6285],[3.90811,43.62946],[3.9101,43.6301],[3.91171,43.63063],[3.91331,43.63115],[3.91453,43.63154],[3.91576,43.63194],[3.91839,43.6328],[3.92121,43.63371],[3.92197,43.63396],[3.92329,43.63439],[3.92566,43.63516],[3.92752,43.63576],[3.92987,43.63653],[3.93125,43.63698],[3.93213,43.63726],[3.93328,43.63763],[3.93426,43.63795],[3.93521,43.63826],[3.93572,43.63842],[3.93622,43.63856],[3.93665,43.63868],[3.9371,43.6388],[3.93766,43.63893],[3.93811,43.63902],[3.93845,43.63909],[3.93881,43.63915],[3.93921,43.63921],[3.93973,43.63928],[3.94016,43.63934],[3.94047,43.63937],[3.9408,43.6394],[3.9412,43.63943],[3.94176,43.63946],[3.94192,43.63947],[3.94192,43.63947],[3.94231,43.63948],[3.9426,43.63949],[3.94314,43.63949],[3.94367,43.63948],[3.94416,43.63946],[3.94462,43.63943],[3.94501,43.63941],[3.94553,43.63936],[3.94593,43.63931],[3.94603,43.6393],[3.94634,43.63926],[3.94661,43.63923],[3.94691,43.63918],[3.94727,43.63912],[3.9476,43.63906],[3.94787,43.63901],[3.94813,43.63895],[3.94837,43.6389],[3.94866,43.63884],[3.94891,43.63877],[3.94919,43.6387],[3.94984,43.63853],[3.95137,43.63812],[3.95288,43.63771],[3.95473,43.63721],[3.95527,43.63707],[3.95677,43.63667],[3.95835,43.63624],[3.95887,43.63611],[3.9594,43.63599],[3.95977,43.63591],[3.96021,43.63582],[3.96071,43.63573],[3.96103,43.63568],[3.96129,43.63564],[3.96161,43.6356],[3.96192,43.63556],[3.9624,43.63551],[3.96289,43.63547],[3.96319,43.63545],[3.96352,43.63543],[3.96404,43.63541],[3.96436,43.63541],[3.96469,43.63541],[3.96508,43.63541],[3.96555,43.63542],[3.96601,43.63544],[3.96662,43.63547],[3.9671,43.63552],[3.96765,43.63557],[3.96813,43.63563],[3.96853,43.63569],[3.96905,43.63578],[3.96969,43.6359],[3.97004,43.63597],[3.97035,43.63604],[3.97105,43.63621],[3.97152,43.63633],[3.97196,43.63646],[3.97233,43.63658],[3.97268,43.6367],[3.97298,43.6368],[3.97332,43.63693],[3.9736,43.63704],[3.97388,43.63715],[3.97425,43.6373],[3.97459,43.63745],[3.97493,43.63761],[3.97541,43.63784],[3.97583,43.63806],[3.97646,43.63843],[3.97677,43.63862],[3.97697,43.63874],[3.9775,43.63909],[3.97794,43.63941],[3.97836,43.63973],[3.97882,43.64009],[3.97889,43.64015],[3.97915,43.64039],[3.97941,43.64063],[3.97968,43.64088],[3.98012,43.64134],[3.98068,43.64193],[3.98075,43.642],[3.98091,43.64216],[3.98108,43.64233],[3.98143,43.64266],[3.98184,43.643],[3.98222,43.64331],[3.98255,43.64355],[3.98274,43.64369],[3.98297,43.64385],[3.98316,43.64398],[3.98349,43.64419],[3.98373,43.64434],[3.98409,43.64456],[3.98427,43.64467],[3.98463,43.64486],[3.98489,43.645],[3.98522,43.64517],[3.98555,43.64533],[3.98605,43.64557],[3.9864,43.64572],[3.9867,43.64584],[3.98721,43.64604],[3.98775,43.64625],[3.98866,43.64658],[3.99052,43.64726],[3.99052,43.64726],[3.99139,43.64758],[3.993,43.64816],[3.99387,43.64848],[3.99515,43.64895],[3.99632,43.64938],[3.99673,43.64953],[3.99686,43.64958],[3.99995,43.65072],[4.00571,43.65282],[4.00595,43.65291],[4.00822,43.65374],[4.00825,43.65375],[4.00835,43.65379],[4.00897,43.65401],[4.00902,43.65403],[4.01348,43.65566],[4.01356,43.65568],[4.01605,43.65661],[4.01617,43.65665],[4.01644,43.65675],[4.01662,43.65681],[4.01927,43.65778],[4.01937,43.65781],[4.0234,43.65929],[4.02347,43.65931],[4.02607,43.66027],[4.02754,43.66081],[4.02873,43.66124],[4.02918,43.66141],[4.02928,43.66144],[4.02949,43.66152],[4.03052,43.66189],[4.03154,43.66228],[4.03178,43.66237],[4.03886,43.66496],[4.04238,43.66624],[4.04592,43.66751],[4.0488,43.66856],[4.04972,43.6689],[4.05428,43.67057],[4.05446,43.67063],[4.05581,43.67112],[4.06015,43.67271],[4.06043,43.67282],[4.06116,43.67308],[4.06172,43.67329],[4.06232,43.6735],[4.06301,43.67376],[4.06373,43.67402],[4.06441,43.67426],[4.06542,43.67464],[4.0662,43.67492],[4.06754,43.67541],[4.06798,43.67557],[4.0685,43.67576],[4.0699,43.67628],[4.07119,43.67674],[4.07191,43.67701],[4.07284,43.67731],[4.07343,43.67749],[4.07412,43.67768],[4.07478,43.67784],[4.07542,43.678],[4.07594,43.6781],[4.07645,43.6782],[4.07731,43.67835],[4.078,43.67847],[4.08109,43.67901],[4.08145,43.67907],[4.08173,43.67912],[4.08328,43.67938],[4.0843,43.67956],[4.08526,43.67973],[4.08712,43.68006],[4.08771,43.68016],[4.08903,43.68038],[4.09029,43.6806],[4.09115,43.68075],[4.09237,43.68096],[4.09358,43.68117],[4.09393,43.68122],[4.09532,43.68146],[4.09603,43.68157],[4.09676,43.68167],[4.09792,43.68181],[4.09908,43.68192],[4.09974,43.68197],[4.09983,43.68198],[4.09998,43.68199],[4.09998,43.68199],[4.10049,43.68202],[4.10096,43.68205],[4.10157,43.68207],[4.10282,43.6821],[4.10328,43.6821],[4.10504,43.68209],[4.1052,43.68209],[4.10538,43.68209],[4.10664,43.68203],[4.10727,43.682],[4.10789,43.68195],[4.10895,43.68184],[4.1098,43.68174],[4.11013,43.68169],[4.11176,43.68142],[4.11273,43.68126],[4.11362,43.68111],[4.11427,43.68098],[4.11482,43.68086],[4.11522,43.68077],[4.11595,43.68058],[4.11686,43.68034],[4.11771,43.68012],[4.11848,43.67994],[4.11924,43.67979],[4.12002,43.67965],[4.12044,43.67958],[4.12102,43.67951],[4.12171,43.67942],[4.12204,43.67938],[4.12251,43.67933],[4.12334,43.67925],[4.1234,43.67925],[4.1234,43.67925],[4.12405,43.6792],[4.12483,43.67916],[4.12507,43.67915],[4.12507,43.67915],[4.12537,43.67914],[4.12564,43.67914],[4.12592,43.67914],[4.12623,43.67914],[4.12672,43.67916],[4.12735,43.6792],[4.12852,43.67929],[4.12908,43.67935],[4.12975,43.67943],[4.13104,43.67962],[4.13232,43.67984],[4.13289,43.67996],[4.13347,43.68008],[4.13426,43.68028],[4.13454,43.68035],[4.13467,43.68039],[4.13492,43.68046],[4.13603,43.68081],[4.13654,43.68099],[4.13656,43.681],[4.13668,43.68104],[4.1376,43.68139],[4.13793,43.68153],[4.13878,43.6819],[4.13924,43.68212],[4.13927,43.68213],[4.13945,43.68222],[4.13945,43.68222],[4.14029,43.68266],[4.14087,43.68296],[4.14152,43.68334],[4.14199,43.68363],[4.14217,43.68374],[4.14272,43.68411],[4.14333,43.68459],[4.14344,43.68467],[4.14434,43.68534],[4.14471,43.68566],[4.14512,43.68602],[4.14559,43.68648],[4.14605,43.68694],[4.14647,43.68741],[4.14688,43.6879],[4.14727,43.6884],[4.14764,43.6889],[4.14794,43.68934],[4.14845,43.69019],[4.14869,43.69061],[4.14889,43.691],[4.14899,43.69121],[4.14955,43.6923],[4.14964,43.69249],[4.15169,43.69659],[4.15172,43.69667],[4.15178,43.6968],[4.15231,43.69791],[4.15239,43.69806],[4.15245,43.69819],[4.15354,43.70039],[4.15365,43.70059],[4.15403,43.70134],[4.15423,43.70173],[4.15442,43.70209],[4.15476,43.70267],[4.15512,43.7032],[4.15519,43.70331],[4.15527,43.70342],[4.15539,43.7036],[4.15592,43.70428],[4.15695,43.70545],[4.15712,43.70563],[4.15757,43.70608],[4.15801,43.70649],[4.15817,43.70663],[4.15927,43.70753],[4.16042,43.70843],[4.16103,43.70891],[4.16138,43.70917],[4.16163,43.70936],[4.16179,43.70948],[4.16353,43.7108],[4.16544,43.71226],[4.16626,43.7129],[4.16694,43.7134],[4.16742,43.71375],[4.16803,43.71417],[4.16869,43.7146],[4.16938,43.71503],[4.16969,43.71522],[4.17016,43.7155],[4.17023,43.71554],[4.17088,43.71591],[4.17103,43.716],[4.17148,43.71624],[4.17212,43.71657],[4.17336,43.71716],[4.17461,43.71776],[4.17485,43.71787],[4.17621,43.71852],[4.17755,43.71916],[4.17777,43.71926],[4.17974,43.72019],[4.18154,43.72105],[4.18195,43.72125],[4.18423,43.72233],[4.18648,43.7234],[4.18675,43.72352],[4.19201,43.72601],[4.19308,43.72655],[4.19335,43.72668],[4.19377,43.72688],[4.19577,43.72787],[4.19675,43.72836],[4.19722,43.7286],[4.19773,43.72886],[4.19788,43.72894],[4.20211,43.73117],[4.20323,43.73176],[4.20478,43.73258],[4.20797,43.73427],[4.21118,43.73595],[4.2138,43.73734],[4.21452,43.73771],[4.21543,43.73819],[4.21673,43.73886],[4.21735,43.73916],[4.21766,43.7393],[4.21816,43.73951],[4.21838,43.73959],[4.2186,43.73967],[4.21895,43.73981],[4.2196,43.74003],[4.22035,43.74026],[4.22127,43.7405],[4.2216,43.74058],[4.22207,43.74068],[4.22295,43.74085],[4.22344,43.74092],[4.22389,43.74099],[4.22455,43.74106],[4.22558,43.74115],[4.22576,43.74116],[4.2262,43.74119],[4.22688,43.74125],[4.22688,43.74125],[4.22818,43.74134],[4.22931,43.74142],[4.23022,43.74149],[4.23469,43.74182],[4.23608,43.74191],[4.23679,43.74197],[4.23731,43.74203],[4.23769,43.74208],[4.23819,43.74216],[4.23867,43.74223],[4.23908,43.74232],[4.23992,43.7425],[4.24072,43.7427],[4.24173,43.743],[4.24227,43.74317],[4.24273,43.74334],[4.2438,43.74376],[4.24434,43.74401],[4.24487,43.74427],[4.24552,43.7446],[4.24616,43.74494],[4.24658,43.74516],[4.24691,43.74533],[4.24812,43.74595],[4.24891,43.74636],[4.24906,43.74645],[4.24913,43.74648],[4.25212,43.74803],[4.25458,43.7493],[4.25484,43.74944],[4.25499,43.74953],[4.25565,43.74991],[4.25627,43.75032],[4.25697,43.75081],[4.25765,43.75135],[4.25804,43.7517],[4.25842,43.75205],[4.25913,43.75279],[4.25958,43.75326],[4.2598,43.75348],[4.26004,43.75372],[4.26082,43.75441],[4.26133,43.75481],[4.26184,43.75519],[4.26209,43.75535],[4.26264,43.75572],[4.26323,43.75608],[4.26388,43.75643],[4.26451,43.75675],[4.26486,43.75692],[4.26726,43.75799],[4.26767,43.75818],[4.26792,43.75829],[4.26871,43.75869],[4.26914,43.75892],[4.26994,43.7594],[4.27033,43.75966],[4.27071,43.75991],[4.27118,43.76027],[4.27164,43.76064],[4.2721,43.76103],[4.27233,43.76123],[4.27252,43.76142],[4.27319,43.7621],[4.27351,43.76246],[4.27382,43.76284],[4.27421,43.76335],[4.27456,43.76387],[4.27472,43.76413],[4.27488,43.76441],[4.27517,43.76494],[4.27523,43.76509],[4.2753,43.76521],[4.27572,43.76616],[4.27593,43.76663],[4.27617,43.76709],[4.27638,43.76745],[4.27661,43.76781],[4.27685,43.76817],[4.2771,43.76851],[4.27718,43.76861],[4.27727,43.76873],[4.27756,43.76909],[4.27785,43.76942],[4.27818,43.76977],[4.2785,43.77009],[4.27899,43.77056],[4.27926,43.77079],[4.27954,43.77102],[4.28017,43.77151],[4.28083,43.77203],[4.28419,43.77463],[4.28446,43.77484],[4.28643,43.77636],[4.28744,43.77715],[4.28845,43.77792],[4.28948,43.77871],[4.29001,43.7791],[4.29054,43.77948],[4.2917,43.78031],[4.2923,43.78074],[4.2926,43.78096],[4.29287,43.78115],[4.29361,43.78168],[4.29398,43.78195],[4.29438,43.78223],[4.29545,43.78301],[4.29573,43.78321],[4.29651,43.78376],[4.29858,43.78525],[4.29962,43.786],[4.30014,43.78638],[4.30066,43.78674],[4.30237,43.78797],[4.30323,43.78858],[4.30408,43.78919],[4.30436,43.78939],[4.30523,43.79002],[4.30553,43.79024],[4.30607,43.79065],[4.30684,43.79126],[4.30759,43.79189],[4.30817,43.79242],[4.30875,43.79296],[4.3093,43.79351],[4.30958,43.7938],[4.30986,43.7941],[4.3104,43.7947],[4.31106,43.7955],[4.3116,43.79619],[4.31214,43.79689],[4.31335,43.79851],[4.31396,43.79931],[4.31438,43.79989],[4.31456,43.80011],[4.31482,43.80046],[4.31496,43.80065],[4.31519,43.80097],[4.3154,43.80123],[4.3154,43.80123],[4.31587,43.80187],[4.31641,43.80257],[4.31779,43.80441],[4.31837,43.80519],[4.31873,43.80566],[4.31905,43.80607],[4.31948,43.8066],[4.31986,43.80705],[4.32029,43.80751],[4.32075,43.80801],[4.32127,43.80854],[4.32161,43.80887],[4.32221,43.80943],[4.32246,43.80966],[4.32296,43.81009],[4.32351,43.81055],[4.32406,43.81097],[4.32458,43.81137],[4.32513,43.81177],[4.32602,43.81239],[4.32669,43.81283],[4.32735,43.81324],[4.32759,43.81338],[4.32785,43.81353],[4.32786,43.81354],[4.32806,43.81365],[4.32815,43.8137],[4.32854,43.81393],[4.32914,43.81426],[4.32979,43.81462],[4.33056,43.81503],[4.33104,43.81529],[4.33104,43.81529],[4.33146,43.81552],[4.33207,43.81585],[4.33215,43.81589],[4.33236,43.816],[4.33324,43.81648],[4.33485,43.81735],[4.33552,43.81771],[4.33631,43.81814],[4.33779,43.81894],[4.33857,43.81936],[4.33951,43.81984],[4.34075,43.82041],[4.34153,43.82072],[4.34243,43.82107],[4.34348,43.82141],[4.34449,43.82172],[4.34529,43.82193],[4.34646,43.82219],[4.34659,43.82222],[4.3479,43.82253],[4.34817,43.8226],[4.34893,43.8228],[4.34955,43.82298],[4.35031,43.82323],[4.35148,43.82364],[4.35193,43.82382],[4.35216,43.82391],[4.35324,43.82439],[4.3533,43.82442],[4.35373,43.82463],[4.35422,43.82486],[4.35491,43.82523],[4.35539,43.82551],[4.35543,43.82553],[4.35561,43.82563],[4.35679,43.82632],[4.35712,43.82652],[4.3574,43.82668],[4.35849,43.82734],[4.35945,43.8279],[4.3599,43.82815],[4.36076,43.82866],[4.3617,43.82921],[4.3617,43.82921],[4.36231,43.82957],[4.36264,43.82976],[4.36283,43.82988],[4.36309,43.83005],[4.36345,43.83029],[4.36352,43.83034],[4.36352,43.83034],[4.36369,43.83047],[4.36381,43.83057],[4.36404,43.83077],[4.36424,43.83093],[4.36448,43.83115],[4.36467,43.8313],[4.36495,43.83154],[4.36574,43.8322],[4.36623,43.83261],[4.36658,43.8329],[4.36702,43.83327],[4.36748,43.83364],[4.36808,43.83411],[4.36864,43.83457],[4.36902,43.83489],[4.36963,43.8354],[4.3705,43.83612],[4.37095,43.8365],[4.37124,43.83675],[4.3716,43.8371],[4.37181,43.83732],[4.37192,43.83744],[4.37192,43.83744],[4.37229,43.83786],[4.37245,43.83805],[4.37259,43.83824],[4.3728,43.83854],[4.37298,43.83886],[4.37315,43.83916],[4.37335,43.83955],[4.37343,43.83973],[4.37347,43.83983],[4.37368,43.84031],[4.37385,43.84066],[4.37398,43.84089],[4.37405,43.84102],[4.37417,43.84121],[4.37421,43.84127],[4.37421,43.84127],[4.37457,43.84178],[4.37482,43.84209],[4.37523,43.84254],[4.37587,43.84318],[4.37623,43.84349],[4.37673,43.84387],[4.37684,43.84396],[4.37684,43.84396],[4.37733,43.84429],[4.3776,43.84444],[4.37787,43.8446],[4.37834,43.84484],[4.37864,43.84499],[4.37898,43.84514],[4.37921,43.84524],[4.37957,43.84536],[4.38005,43.84552],[4.38056,43.84566],[4.38124,43.84582],[4.38175,43.84595],[4.38292,43.84623],[4.38351,43.84635],[4.38408,43.84648],[4.38408,43.84648],[4.38609,43.8469],[4.38619,43.84692],[4.38628,43.84693],[4.38704,43.84708],[4.38704,43.84708],[4.3879,43.84724],[4.38842,43.84734],[4.38983,43.84755],[4.38992,43.84756],[4.39105,43.8477],[4.39182,43.84779],[4.39259,43.84786],[4.39379,43.84794],[4.39477,43.84801],[4.39567,43.84806],[4.39595,43.84808],[4.39651,43.8481],[4.39651,43.8481],[4.39698,43.84811],[4.39772,43.84811],[4.398,43.8481],[4.3988,43.84804],[4.39946,43.84797],[4.40011,43.84789],[4.40106,43.84776],[4.40106,43.84776],[4.40242,43.84757],[4.40491,43.84723],[4.40751,43.84683],[4.40817,43.84672],[4.40869,43.84662],[4.40945,43.84645],[4.4101,43.84627],[4.41186,43.84577],[4.41231,43.84565],[4.41276,43.84554],[4.41337,43.84541],[4.41403,43.84529],[4.41493,43.84515],[4.41573,43.84502],[4.41593,43.84498],[4.41645,43.84487],[4.41693,43.84476],[4.41702,43.84473],[4.41744,43.84462],[4.41794,43.84448],[4.4182,43.8444],[4.4182,43.8444],[4.41979,43.84393],[4.41979,43.84393],[4.42673,43.84189],[4.42864,43.84133],[4.433,43.84004],[4.43582,43.83921],[4.43648,43.83901],[4.43728,43.83877],[4.44768,43.83571],[4.4684,43.82961],[4.47377,43.82802],[4.47389,43.82799],[4.47887,43.82652],[4.47953,43.82632],[4.48181,43.82566],[4.48325,43.82522],[4.48416,43.82496],[4.48539,43.82459],[4.48655,43.82425],[4.4876,43.82394],[4.4876,43.82394],[4.48933,43.82343],[4.48973,43.82331],[4.4905,43.82309],[4.49158,43.82277],[4.49264,43.82246],[4.49374,43.82213],[4.49374,43.82213],[4.49456,43.82189],[4.49525,43.82169],[4.49607,43.82144],[4.49724,43.8211],[4.49795,43.82088],[4.49866,43.82065],[4.49937,43.82042],[4.50007,43.82017],[4.50086,43.81989],[4.50152,43.81964],[4.50217,43.81938],[4.50272,43.81916],[4.50419,43.81853],[4.505,43.81816],[4.5058,43.81778],[4.50731,43.81702],[4.50745,43.81696],[4.50843,43.81643],[4.50973,43.81568],[4.51061,43.81515],[4.5111,43.81484],[4.51158,43.81452],[4.51213,43.81415],[4.51283,43.81367],[4.51343,43.81325],[4.51413,43.81273],[4.51461,43.81235],[4.51505,43.81201],[4.51551,43.81164],[4.51597,43.81126],[4.51691,43.81045],[4.51808,43.80946],[4.5216,43.80644],[4.52322,43.80505],[4.5234,43.8049],[4.52516,43.8034],[4.52955,43.79965],[4.53264,43.79699],[4.53356,43.79621],[4.53375,43.79604],[4.53761,43.79274],[4.53903,43.79152],[4.53982,43.7909],[4.54061,43.79036],[4.54136,43.78993],[4.54213,43.78955],[4.54279,43.78929],[4.54354,43.78901],[4.54423,43.78881],[4.54468,43.78869],[4.54517,43.78858],[4.54561,43.7885],[4.54619,43.7884],[4.54681,43.78832],[4.54748,43.78826],[4.54815,43.78824],[4.54881,43.78823],[4.54949,43.78825],[4.55014,43.78829],[4.55082,43.78837],[4.55148,43.78847],[4.55213,43.7886],[4.55277,43.78876],[4.55339,43.78893],[4.55401,43.78912],[4.55461,43.78934],[4.55517,43.7896],[4.55572,43.78987],[4.55628,43.79016],[4.55679,43.79049],[4.55727,43.79082],[4.55773,43.79116],[4.55963,43.79272],[4.56065,43.79355],[4.56115,43.79395],[4.56165,43.7943],[4.56214,43.79462],[4.56267,43.79493],[4.56318,43.7952],[4.56375,43.79545],[4.56433,43.7957],[4.56492,43.79591],[4.56553,43.79611],[4.56616,43.79628],[4.56693,43.79647],[4.56766,43.79664],[4.56917,43.79697],[4.57064,43.79732],[4.5714,43.79748],[4.57218,43.79762],[4.57295,43.79776],[4.57372,43.79787],[4.57453,43.79797],[4.57532,43.79805],[4.57636,43.79817],[4.57648,43.79818],[4.57649,43.79818],[4.57757,43.79829],[4.57857,43.79841],[4.57963,43.79856],[4.58069,43.79877],[4.58175,43.79901],[4.58203,43.79908],[4.58221,43.79913],[4.58278,43.79928],[4.58388,43.79959],[4.58508,43.80002],[4.58518,43.80006],[4.58526,43.80009],[4.5863,43.8005],[4.58661,43.80063],[4.58691,43.80076],[4.58728,43.80093],[4.58764,43.8011],[4.58821,43.80138],[4.5885,43.80153],[4.58878,43.80168],[4.58909,43.80186],[4.5894,43.80203],[4.5897,43.80221],[4.58999,43.80238],[4.59117,43.80311],[4.59293,43.8042],[4.59577,43.80594],[4.59615,43.80618],[4.59654,43.80641],[4.5974,43.80687],[4.59789,43.8071],[4.59862,43.80744],[4.59917,43.80767],[4.59966,43.80785],[4.60073,43.80824],[4.60137,43.80846],[4.60153,43.80851],[4.60161,43.80853],[4.60213,43.80868],[4.60281,43.80888],[4.60355,43.80906],[4.60431,43.80921],[4.60451,43.80925],[4.60475,43.8093],[4.60508,43.80936],[4.60582,43.80949],[4.60651,43.80959],[4.60708,43.80966],[4.60792,43.80975],[4.60873,43.80982],[4.61028,43.80988],[4.61068,43.80989],[4.61107,43.80989],[4.61188,43.80987],[4.61257,43.80984],[4.61343,43.80979],[4.61409,43.80973],[4.61483,43.80964],[4.6156,43.80954],[4.61637,43.80941],[4.61713,43.80927],[4.61792,43.80912],[4.61937,43.8088],[4.62037,43.8086],[4.62162,43.80832],[4.62276,43.80803],[4.62294,43.80799],[4.62294,43.80799],[4.62339,43.80786],[4.62354,43.80782],[4.6244,43.80753],[4.62527,43.80721],[4.62696,43.8065],[4.62743,43.8063],[4.62956,43.80538],[4.63033,43.80509],[4.63098,43.80487],[4.63159,43.80469],[4.63221,43.8045],[4.63221,43.8045],[4.63303,43.80428],[4.63362,43.80412],[4.63431,43.80395],[4.63533,43.80374],[4.6356,43.80369],[4.63639,43.80354],[4.63714,43.80344],[4.63787,43.80335],[4.64031,43.80306],[4.64203,43.80288],[4.64311,43.80276],[4.64365,43.80268],[4.64398,43.80264],[4.64486,43.80251],[4.64616,43.80234],[4.64672,43.80228],[4.64715,43.80223],[4.64719,43.80222],[4.64719,43.80222]]},"properties":{"name":"Ligne de Tarascon à Sète, Ligne de Tarascon à Sète-Ville"}}]}