{"type":"FeatureCollection","features":[{"type":"Feature","geometry":{"type":"LineString","coordinates":[[1.45418,43.61143],[1.45435,43.61077],[1.4544,43.61057],[1.45443,43.61046],[1.45446,43.61036],[1.45449,43.61029],[1.45451,43.61022],[1.45454,43.61015],[1.45457,43.61007],[1.45465,43.60992],[1.45482,43.60964],[1.45492,43.60949],[1.455,43.60939],[1.45508,43.60931],[1.45516,43.60922],[1.45524,43.60912],[1.45545,43.60888],[1.45586,43.60837],[1.45586,43.60837],[1.45598,43.60818],[1.45598,43.60818],[1.45607,43.60803],[1.45607,43.60803],[1.45625,43.60779],[1.45635,43.60766],[1.45665,43.60725],[1.45675,43.60709],[1.45696,43.60674],[1.45712,43.60647],[1.45731,43.6061],[1.4574,43.60593],[1.45747,43.60576],[1.45756,43.60555],[1.45765,43.60534],[1.45772,43.6051],[1.45781,43.60479],[1.45788,43.60451],[1.45793,43.60425],[1.45799,43.60398],[1.45809,43.60352],[1.45819,43.60304],[1.45826,43.60266],[1.4583,43.60244],[1.45834,43.60223],[1.45837,43.60175],[1.45839,43.60128],[1.45836,43.60085],[1.45832,43.60024],[1.45826,43.5995],[1.45825,43.59927],[1.45823,43.59896],[1.45817,43.59756],[1.45817,43.5973],[1.45818,43.59709],[1.4582,43.59694],[1.45822,43.59679],[1.45824,43.59667],[1.45827,43.59652],[1.45831,43.59636],[1.45834,43.59623],[1.45839,43.59606],[1.45846,43.59586],[1.4585,43.59576],[1.45859,43.59552],[1.45865,43.59538],[1.45884,43.59494],[1.45939,43.59364],[1.4595,43.59337],[1.45957,43.5932],[1.4596,43.59311],[1.45963,43.59302],[1.45965,43.59293],[1.45968,43.59283],[1.4597,43.59273],[1.45971,43.59263],[1.45972,43.59253],[1.45973,43.59244],[1.45974,43.5923],[1.45973,43.59218],[1.45973,43.5921],[1.45972,43.59203],[1.45971,43.59194],[1.4597,43.59185],[1.45964,43.59161],[1.45962,43.59153],[1.45959,43.59142],[1.45955,43.5913],[1.45947,43.5911],[1.45939,43.59088],[1.45936,43.59081],[1.45931,43.59071],[1.45915,43.59038],[1.45894,43.59],[1.4587,43.58964],[1.45839,43.58921],[1.45804,43.58876],[1.4579,43.58858],[1.45663,43.58685],[1.45593,43.58592],[1.45567,43.58557],[1.45508,43.58479],[1.45497,43.58463],[1.45412,43.58352],[1.45307,43.58213],[1.45283,43.58182],[1.45251,43.58145],[1.45216,43.58106],[1.45198,43.58089],[1.45179,43.58073],[1.45148,43.58045],[1.45125,43.58027],[1.45098,43.58007],[1.45076,43.57991],[1.45053,43.57976],[1.45032,43.57962],[1.45016,43.57952],[1.45002,43.57943],[1.44969,43.57925],[1.44749,43.57799],[1.44597,43.57715],[1.4442,43.57612],[1.4435,43.57572],[1.44206,43.57493],[1.44097,43.57431],[1.4399,43.57367],[1.43952,43.57345],[1.43896,43.57314],[1.43842,43.57283],[1.4383,43.57276],[1.43782,43.57249],[1.43734,43.57222],[1.43687,43.57195],[1.43641,43.57168],[1.43623,43.57158],[1.43602,43.57146],[1.4358,43.57134],[1.43561,43.57125],[1.43543,43.57116],[1.43523,43.57107],[1.43505,43.571],[1.43485,43.57092],[1.43467,43.57086],[1.43445,43.5708],[1.43424,43.57074],[1.43402,43.57069],[1.43382,43.57065],[1.43361,43.57061],[1.43339,43.57057],[1.433,43.57051],[1.43073,43.57015],[1.43069,43.57015],[1.43069,43.57015],[1.42977,43.57],[1.42924,43.56992],[1.42908,43.56989],[1.42892,43.56987],[1.42843,43.56977],[1.42781,43.56964],[1.42729,43.56953],[1.42703,43.56946],[1.42675,43.56939],[1.42645,43.5693],[1.4261,43.56918],[1.42585,43.56908],[1.42558,43.56897],[1.42522,43.5688],[1.42475,43.56858],[1.42447,43.56844],[1.42392,43.56815],[1.42353,43.56791],[1.42328,43.56776],[1.42298,43.56755],[1.42269,43.56734],[1.42248,43.56719],[1.42232,43.56705],[1.42195,43.56675],[1.42154,43.56637],[1.42114,43.56594],[1.42075,43.56549],[1.4198,43.56436],[1.41919,43.56363],[1.41518,43.55887],[1.41226,43.55541],[1.40929,43.5519],[1.4077,43.55001],[1.40653,43.54863],[1.40362,43.54518],[1.40188,43.54311],[1.40071,43.54172],[1.39837,43.53896],[1.39668,43.53694],[1.39407,43.53385],[1.39363,43.53333],[1.39267,43.53219],[1.39169,43.53103],[1.39151,43.53081],[1.39144,43.53073],[1.39082,43.53],[1.39048,43.52959],[1.39014,43.5292],[1.38939,43.5283],[1.3891,43.52795],[1.38831,43.52702],[1.38828,43.52698],[1.38802,43.52668],[1.38737,43.52594],[1.3868,43.52526],[1.38676,43.52521],[1.38676,43.52521],[1.3858,43.52406],[1.38569,43.52392],[1.38569,43.52392],[1.38504,43.52314],[1.38489,43.52297],[1.38475,43.5228],[1.3846,43.52263],[1.38439,43.52241],[1.38423,43.52226],[1.38413,43.52216],[1.38393,43.52197],[1.3837,43.52177],[1.38351,43.52161],[1.38332,43.52145],[1.38308,43.52128],[1.3829,43.52114],[1.38272,43.52102],[1.38253,43.5209],[1.38226,43.52072],[1.38202,43.52058],[1.38173,43.52041],[1.3814,43.52023],[1.38081,43.51993],[1.38046,43.51974],[1.38019,43.5196],[1.38008,43.51955],[1.37934,43.51916],[1.37734,43.51812],[1.3769,43.51789],[1.37623,43.51754],[1.37519,43.51699],[1.37443,43.5166],[1.37353,43.51613],[1.37217,43.51542],[1.37084,43.51473],[1.36979,43.51418],[1.36757,43.51303],[1.36433,43.51133],[1.36267,43.51046],[1.36212,43.51018],[1.36154,43.50988],[1.36083,43.50951],[1.36041,43.50928],[1.35994,43.50904],[1.35931,43.50871],[1.35878,43.50842],[1.3583,43.50814],[1.3576,43.5077],[1.35712,43.50738],[1.35681,43.50717],[1.35646,43.50694],[1.35627,43.50681],[1.35577,43.50646],[1.35547,43.50626],[1.35507,43.50599],[1.35464,43.5057],[1.35416,43.50537],[1.35387,43.50517],[1.35346,43.50489],[1.3531,43.50464],[1.35268,43.50436],[1.35232,43.50411],[1.352,43.50389],[1.35164,43.50365],[1.35121,43.50335],[1.3508,43.50307],[1.35048,43.50285],[1.35,43.50252],[1.34955,43.50221],[1.34896,43.50181],[1.34846,43.50147],[1.34778,43.501],[1.34695,43.50044],[1.34654,43.50015],[1.34635,43.50003],[1.34609,43.49984],[1.3456,43.49951],[1.34466,43.49887],[1.34411,43.49849],[1.34331,43.49794],[1.3425,43.49739],[1.34208,43.4971],[1.34168,43.49682],[1.34138,43.49661],[1.34122,43.49649],[1.34106,43.49637],[1.34072,43.49612],[1.3404,43.49586],[1.33994,43.49548],[1.33945,43.49506],[1.33899,43.49463],[1.33856,43.4942],[1.33817,43.49379],[1.33795,43.49354],[1.33773,43.49328],[1.33736,43.49284],[1.33708,43.49248],[1.3368,43.4921],[1.33655,43.49175],[1.33631,43.49139],[1.33602,43.49091],[1.33585,43.49063],[1.3357,43.49035],[1.33545,43.48989],[1.33529,43.48954],[1.33514,43.48922],[1.33485,43.48852],[1.33447,43.48754],[1.3343,43.48712],[1.33412,43.48669],[1.33339,43.48485],[1.33245,43.48248],[1.33224,43.48197],[1.33152,43.48015],[1.33129,43.47958],[1.33127,43.47953],[1.33104,43.47896],[1.33058,43.47779],[1.33039,43.47732],[1.32958,43.47527],[1.32929,43.47453],[1.32918,43.47428],[1.32823,43.4719],[1.32765,43.47042],[1.32758,43.47024],[1.32747,43.46997],[1.32736,43.46971],[1.32724,43.46944],[1.32712,43.46921],[1.32707,43.46911],[1.32701,43.469],[1.32691,43.46883],[1.32682,43.46867],[1.32661,43.46834],[1.3264,43.46803],[1.32623,43.46777],[1.32623,43.46777],[1.3262,43.46773],[1.32614,43.46765],[1.32573,43.46703],[1.32565,43.46691],[1.32515,43.46616],[1.3243,43.4649],[1.32371,43.46402],[1.32307,43.46302],[1.32291,43.46277],[1.32268,43.46245],[1.32262,43.46237],[1.32256,43.46228],[1.32235,43.46201],[1.32211,43.46171],[1.32208,43.46166],[1.32183,43.46135],[1.32148,43.46089],[1.32061,43.45979],[1.32036,43.45946],[1.31928,43.45808],[1.31859,43.4572],[1.31833,43.45686],[1.31828,43.4568],[1.31761,43.45594],[1.31751,43.45581],[1.31658,43.45461],[1.31567,43.45345],[1.31494,43.45251],[1.31365,43.45086],[1.31188,43.44859],[1.31008,43.44629],[1.30942,43.44544],[1.30873,43.44455],[1.30733,43.44275],[1.30702,43.44236],[1.30667,43.44191],[1.30604,43.4411],[1.30516,43.43997],[1.30478,43.43948],[1.30447,43.43908],[1.304,43.43846],[1.30344,43.43767],[1.30303,43.43708],[1.30256,43.43634],[1.3023,43.43592],[1.30206,43.43552],[1.30173,43.43499],[1.30127,43.43424],[1.30084,43.43355],[1.30068,43.4333],[1.30023,43.43256],[1.29767,43.42842],[1.29739,43.42796],[1.29698,43.42731],[1.29634,43.42627],[1.29587,43.42551],[1.29529,43.42458],[1.29405,43.42257],[1.29384,43.42223],[1.29361,43.42186],[1.29334,43.42142],[1.29304,43.42092],[1.2927,43.42038],[1.29258,43.42019],[1.29225,43.41966],[1.2918,43.41892],[1.29134,43.41818],[1.2909,43.41746],[1.29045,43.41673],[1.28988,43.41581],[1.28959,43.41534],[1.28957,43.4153],[1.28948,43.41516],[1.28906,43.41448],[1.28863,43.41378],[1.28792,43.41263],[1.2875,43.41196],[1.2873,43.41162],[1.28676,43.41075],[1.28618,43.40981],[1.28585,43.40927],[1.2853,43.40838],[1.28496,43.40783],[1.28451,43.40709],[1.28421,43.40662],[1.28405,43.40636],[1.28388,43.4061],[1.28358,43.40564],[1.28333,43.40525],[1.2831,43.40491],[1.28276,43.40439],[1.28275,43.40439],[1.28213,43.40345],[1.28158,43.40262],[1.28125,43.40212],[1.28103,43.40179],[1.28082,43.40148],[1.28023,43.40057],[1.28009,43.40036],[1.27986,43.40002],[1.27929,43.39916],[1.2787,43.39827],[1.27834,43.39773],[1.27731,43.39618],[1.27599,43.39419],[1.27368,43.3907],[1.27208,43.38828],[1.27176,43.3878],[1.2713,43.3871],[1.27081,43.38636],[1.27002,43.38517],[1.26912,43.38382],[1.26838,43.38269],[1.26759,43.38151],[1.26716,43.38086],[1.26669,43.38016],[1.26566,43.37859],[1.26531,43.37807],[1.2648,43.37729],[1.26125,43.37194],[1.26054,43.37086],[1.25977,43.36971],[1.25915,43.36876],[1.25856,43.36787],[1.25812,43.3672],[1.25746,43.36621],[1.25707,43.36562],[1.25602,43.36404],[1.25496,43.36243],[1.25449,43.36171],[1.25437,43.36151],[1.25401,43.36087],[1.25377,43.36041],[1.25353,43.35991],[1.2533,43.35936],[1.25302,43.35866],[1.25274,43.35799],[1.25246,43.35735],[1.25206,43.35643],[1.25181,43.35588],[1.25156,43.35535],[1.25143,43.35505],[1.25129,43.35475],[1.25124,43.35465],[1.2508,43.35366],[1.2502,43.35228],[1.25003,43.35189],[1.24986,43.3515],[1.24953,43.35074],[1.24931,43.35024],[1.24912,43.34983],[1.24884,43.34928],[1.24863,43.34891],[1.24835,43.34843],[1.24783,43.34758],[1.24667,43.3457],[1.24377,43.34099],[1.24338,43.34035],[1.24308,43.33986],[1.24232,43.33863],[1.2414,43.33714],[1.23952,43.33408],[1.23897,43.33318],[1.23793,43.33149],[1.23514,43.32695],[1.23479,43.32638],[1.23465,43.32616],[1.23357,43.32441],[1.23234,43.32239],[1.23143,43.32091],[1.23092,43.32009],[1.23068,43.31971],[1.23035,43.31916],[1.23,43.3186],[1.22864,43.31639],[1.22834,43.31589],[1.22798,43.3153],[1.22791,43.3152],[1.22775,43.31493],[1.2273,43.3142],[1.22675,43.31331],[1.22621,43.31244],[1.22568,43.31157],[1.22448,43.30961],[1.22407,43.30896],[1.22388,43.30866],[1.22371,43.3084],[1.22364,43.30831],[1.22346,43.30806],[1.22332,43.30787],[1.22314,43.30763],[1.22298,43.30743],[1.2228,43.30722],[1.22262,43.307],[1.22231,43.30665],[1.22204,43.30637],[1.22179,43.3061],[1.22137,43.30568],[1.22101,43.30534],[1.22059,43.30497],[1.22026,43.30469],[1.21993,43.30442],[1.21968,43.30421],[1.21957,43.30413],[1.21936,43.30395],[1.21766,43.30257],[1.21456,43.30004],[1.214,43.29959],[1.21373,43.29936],[1.21307,43.29883],[1.21199,43.29795],[1.21131,43.29739],[1.21076,43.29694],[1.21038,43.29663],[1.21006,43.29636],[1.20978,43.29614],[1.20964,43.29602],[1.20939,43.29583],[1.20898,43.29549],[1.2086,43.29518],[1.20823,43.29487],[1.20769,43.29443],[1.20703,43.2939],[1.20642,43.2934],[1.2061,43.29313],[1.2054,43.29256],[1.20454,43.29186],[1.20376,43.29123],[1.20341,43.29095],[1.2031,43.29071],[1.20279,43.29048],[1.2023,43.29014],[1.20177,43.28978],[1.20145,43.28958],[1.20118,43.28941],[1.2009,43.28925],[1.20059,43.28907],[1.20033,43.28892],[1.20003,43.28876],[1.1998,43.28863],[1.19944,43.28845],[1.19918,43.28832],[1.19887,43.28817],[1.19856,43.28802],[1.19824,43.28788],[1.19786,43.28771],[1.19753,43.28757],[1.19722,43.28745],[1.19685,43.2873],[1.19655,43.28719],[1.19615,43.28704],[1.19584,43.28694],[1.19561,43.28686],[1.19528,43.28675],[1.19494,43.28664],[1.19435,43.28646],[1.19374,43.28627],[1.19279,43.28598],[1.19199,43.28574],[1.1915,43.28559],[1.19007,43.28515],[1.18858,43.28469],[1.18793,43.28449],[1.18719,43.28426],[1.18643,43.28403],[1.18562,43.28378],[1.18421,43.28335],[1.18309,43.283],[1.18195,43.28266],[1.18107,43.28238],[1.17884,43.2817],[1.17773,43.28136],[1.17662,43.28102],[1.17165,43.27949],[1.17073,43.27921],[1.16957,43.27884],[1.16894,43.27863],[1.16839,43.27842],[1.16759,43.27811],[1.167,43.27785],[1.16637,43.27756],[1.16577,43.27726],[1.16547,43.27711],[1.16517,43.27695],[1.1648,43.27675],[1.16445,43.27655],[1.16401,43.27629],[1.16344,43.27593],[1.1631,43.27571],[1.16278,43.27549],[1.16219,43.27507],[1.16199,43.27491],[1.16161,43.27461],[1.16087,43.27401],[1.16008,43.27335],[1.15864,43.27215],[1.15778,43.27145],[1.15318,43.26762],[1.15215,43.26676],[1.15001,43.26499],[1.1483,43.26357],[1.14733,43.26276],[1.14725,43.2627],[1.14609,43.26173],[1.14538,43.26115],[1.14514,43.26094],[1.14435,43.26029],[1.14399,43.25998],[1.14376,43.25979],[1.14339,43.25949],[1.1429,43.25908],[1.14065,43.25721],[1.13954,43.25629],[1.13886,43.25572],[1.13761,43.25469],[1.13604,43.25338],[1.13223,43.25022],[1.13114,43.24931],[1.12999,43.24835],[1.12835,43.24698],[1.1263,43.24528],[1.12521,43.24438],[1.12356,43.243],[1.12083,43.24073],[1.12022,43.24022],[1.11939,43.23954],[1.1184,43.23871],[1.11735,43.23784],[1.11657,43.23719],[1.11453,43.23549],[1.11394,43.23499],[1.11333,43.23449],[1.1126,43.23389],[1.1117,43.23314],[1.11132,43.23282],[1.11011,43.23181],[1.10952,43.23132],[1.10943,43.23125],[1.1091,43.23097],[1.1087,43.23064],[1.10807,43.23012],[1.10773,43.22984],[1.10738,43.22954],[1.10694,43.22918],[1.10632,43.22866],[1.10578,43.22821],[1.10535,43.22785],[1.10485,43.22743],[1.10409,43.2268],[1.10351,43.22632],[1.10316,43.22603],[1.10275,43.22569],[1.10194,43.22501],[1.10152,43.22466],[1.10081,43.22407],[1.10004,43.22343],[1.0991,43.22265],[1.0962,43.22023],[1.09563,43.21976],[1.09502,43.21925],[1.09436,43.2187],[1.09401,43.21841],[1.09372,43.21817],[1.0934,43.21793],[1.09321,43.21778],[1.0927,43.21741],[1.09226,43.21711],[1.09196,43.2169],[1.09146,43.21657],[1.09107,43.21633],[1.09066,43.21608],[1.09015,43.21578],[1.08983,43.2156],[1.08948,43.21541],[1.08897,43.21514],[1.08857,43.21494],[1.08813,43.21471],[1.08771,43.21452],[1.08728,43.21432],[1.08685,43.21413],[1.0866,43.21402],[1.08647,43.21397],[1.08605,43.21381],[1.08566,43.21367],[1.08541,43.21358],[1.08496,43.21344],[1.08444,43.21329],[1.08411,43.2132],[1.08376,43.21311],[1.08256,43.21278],[1.08102,43.21236],[1.08056,43.21224],[1.08012,43.21212],[1.07951,43.21196],[1.07894,43.21181],[1.07858,43.21171],[1.07843,43.21167],[1.07838,43.21166],[1.07805,43.21157],[1.07773,43.21149],[1.07744,43.21142],[1.07702,43.21133],[1.07625,43.21118],[1.07502,43.21094],[1.07388,43.21072],[1.0737,43.21068],[1.07295,43.21054],[1.07182,43.21031],[1.07066,43.21009],[1.06865,43.20969],[1.06834,43.20963],[1.06774,43.20951],[1.0667,43.20931],[1.06566,43.2091],[1.06405,43.20879],[1.06274,43.20853],[1.06144,43.20827],[1.06103,43.20819],[1.06021,43.20803],[1.05916,43.20783],[1.05788,43.20758],[1.05578,43.20716],[1.05359,43.20673],[1.05315,43.20664],[1.05264,43.20654],[1.05165,43.20635],[1.05165,43.20635],[1.0507,43.20616],[1.04778,43.20559],[1.04554,43.20515],[1.04447,43.20494],[1.04358,43.20476],[1.04249,43.20455],[1.04205,43.20446],[1.04134,43.20432],[1.04072,43.20418],[1.03991,43.20399],[1.03934,43.20383],[1.03886,43.20369],[1.03842,43.20355],[1.03804,43.20343],[1.03776,43.20334],[1.03746,43.20324],[1.03715,43.20312],[1.03634,43.20282],[1.03541,43.20246],[1.03444,43.20208],[1.03363,43.20177],[1.03248,43.20132],[1.03055,43.20057],[1.02938,43.20012],[1.02831,43.19971],[1.02702,43.1992],[1.02584,43.19875],[1.0237,43.19792],[1.02301,43.19765],[1.02257,43.19749],[1.0223,43.1974],[1.02205,43.19732],[1.02156,43.19717],[1.02121,43.19708],[1.021,43.19703],[1.0205,43.19692],[1.01995,43.1968],[1.01938,43.19668],[1.01825,43.19646],[1.01698,43.19621],[1.01662,43.19614],[1.01612,43.19605],[1.01571,43.19597],[1.01461,43.19577],[1.01407,43.19567],[1.01353,43.19558],[1.01275,43.19546],[1.01194,43.19533],[1.01107,43.1952],[1.01015,43.19506],[1.00905,43.19489],[1.00804,43.19473],[1.00568,43.19436],[1.00346,43.19402],[1.00289,43.19392],[1.00271,43.19389],[1.0021,43.19377],[1.0014,43.19362],[1.00073,43.19346],[1.00001,43.19327],[0.99967,43.19317],[0.99933,43.19307],[0.99904,43.19298],[0.99872,43.19288],[0.99833,43.19275],[0.99792,43.19261],[0.99737,43.19241],[0.99689,43.19222],[0.99641,43.19203],[0.99544,43.19162],[0.99451,43.19124],[0.99368,43.19089],[0.99243,43.19038],[0.99137,43.18994],[0.99025,43.18948],[0.98876,43.18886],[0.98392,43.18685],[0.98288,43.18643],[0.98131,43.18578],[0.9805,43.18544],[0.98043,43.18541],[0.97974,43.18513],[0.97965,43.18509],[0.97965,43.18509],[0.9788,43.18474],[0.97835,43.18455],[0.97774,43.18429],[0.97726,43.18407],[0.97682,43.18384],[0.97638,43.18359],[0.97594,43.18332],[0.97554,43.18305],[0.97515,43.18276],[0.97478,43.18247],[0.97443,43.18216],[0.9741,43.18183],[0.97377,43.18147],[0.97369,43.18138],[0.97362,43.1813],[0.97346,43.18111],[0.97324,43.18083],[0.97306,43.18061],[0.97303,43.18056],[0.97296,43.18048],[0.97278,43.18024],[0.97235,43.17967],[0.97146,43.17848],[0.9713,43.17827],[0.97115,43.17807],[0.97101,43.17789],[0.97087,43.1777],[0.97072,43.17749],[0.97058,43.1773],[0.97041,43.17705],[0.97022,43.17677],[0.97007,43.17652],[0.96995,43.17633],[0.96991,43.17625],[0.96981,43.17607],[0.96971,43.17589],[0.96964,43.17576],[0.96931,43.17515],[0.96898,43.17452],[0.96864,43.17387],[0.9676,43.17187],[0.96748,43.17163],[0.96675,43.1702],[0.96553,43.16784],[0.96532,43.16742],[0.96513,43.16697],[0.96499,43.16655],[0.96487,43.16611],[0.96479,43.16567],[0.96474,43.16523],[0.96472,43.16479],[0.96472,43.16433],[0.96473,43.16384],[0.96476,43.16325],[0.96478,43.16249],[0.96485,43.16119],[0.96489,43.16024],[0.96489,43.16022],[0.96494,43.15926],[0.96495,43.15896],[0.96493,43.15834],[0.96487,43.1579],[0.9648,43.15749],[0.96469,43.15706],[0.96456,43.15662],[0.96439,43.1562],[0.96423,43.15585],[0.96406,43.15551],[0.96381,43.1551],[0.96354,43.15469],[0.96327,43.15433],[0.96299,43.15399],[0.96268,43.15365],[0.96235,43.15332],[0.96201,43.15302],[0.96163,43.15271],[0.95972,43.15125],[0.95765,43.14965],[0.95623,43.14856],[0.9547,43.14737],[0.95243,43.14563],[0.95116,43.14465],[0.95064,43.14425],[0.9501,43.14386],[0.9496,43.14351],[0.94905,43.14314],[0.94848,43.14279],[0.94791,43.14246],[0.9473,43.14213],[0.94668,43.14182],[0.94608,43.14154],[0.94545,43.14125],[0.94477,43.14097],[0.94416,43.14073],[0.94376,43.14059],[0.94348,43.14049],[0.94292,43.1403],[0.94226,43.14009],[0.94157,43.13989],[0.94084,43.13971],[0.94016,43.13954],[0.93944,43.13939],[0.93875,43.13926],[0.93794,43.13912],[0.93587,43.13873],[0.93528,43.13862],[0.93388,43.13837],[0.93288,43.1382],[0.93218,43.13809],[0.9315,43.13798],[0.93116,43.13792],[0.9307,43.13781],[0.93013,43.13768],[0.92966,43.13755],[0.92916,43.13739],[0.92866,43.13722],[0.92817,43.13702],[0.92764,43.13678],[0.92715,43.13653],[0.92666,43.13627],[0.92623,43.13601],[0.92583,43.13574],[0.92545,43.13547],[0.92512,43.13522],[0.9248,43.13494],[0.92448,43.13465],[0.92419,43.13436],[0.92388,43.13402],[0.92357,43.13363],[0.92288,43.13276],[0.92251,43.13229],[0.92211,43.13176],[0.92175,43.13122],[0.92164,43.13104],[0.92142,43.1307],[0.92061,43.12938],[0.91971,43.12791],[0.91881,43.12643],[0.91791,43.12495],[0.91701,43.12347],[0.9161,43.12199],[0.91572,43.12138],[0.91549,43.12104],[0.91511,43.12055],[0.91478,43.12017],[0.91443,43.11982],[0.91408,43.1195],[0.91393,43.11937],[0.91386,43.11931],[0.91372,43.11919],[0.91333,43.11889],[0.91306,43.1187],[0.91252,43.11836],[0.91211,43.11811],[0.91165,43.11786],[0.91119,43.11764],[0.91071,43.11742],[0.91028,43.11725],[0.90982,43.11709],[0.90937,43.11694],[0.9089,43.1168],[0.90831,43.11663],[0.90633,43.11611],[0.9049,43.11572],[0.90374,43.11541],[0.9012,43.11472],[0.89915,43.11418],[0.88979,43.11166],[0.88549,43.1105],[0.88252,43.10971],[0.87381,43.10736],[0.87312,43.10719],[0.87245,43.10705],[0.87178,43.1069],[0.87105,43.10677],[0.87039,43.10667],[0.86966,43.10657],[0.86696,43.10631],[0.85987,43.10565],[0.85494,43.10519],[0.85264,43.10499],[0.85108,43.10484],[0.84842,43.10459],[0.84181,43.10399],[0.83743,43.10359],[0.83624,43.10348],[0.8354,43.10342],[0.83447,43.10337],[0.83336,43.10332],[0.83225,43.1033],[0.83114,43.10328],[0.83004,43.10329],[0.82893,43.10332],[0.82834,43.10334],[0.82775,43.10337],[0.82671,43.10342],[0.82561,43.1035],[0.82451,43.1036],[0.80718,43.10548],[0.80454,43.10577],[0.80379,43.10585],[0.80324,43.10589],[0.8027,43.10591],[0.80213,43.1059],[0.80165,43.10589],[0.80104,43.10585],[0.80049,43.1058],[0.79996,43.10573],[0.79942,43.10565],[0.7989,43.10555],[0.79841,43.10543],[0.79791,43.1053],[0.79738,43.10514],[0.79687,43.10497],[0.79638,43.10477],[0.79591,43.10458],[0.79545,43.10435],[0.79501,43.10412],[0.79442,43.10379],[0.7931,43.10303],[0.79298,43.10296],[0.79225,43.10256],[0.79177,43.10234],[0.79128,43.10214],[0.79077,43.10197],[0.79024,43.10181],[0.78971,43.10168],[0.78918,43.10157],[0.78864,43.10149],[0.78814,43.10143],[0.78759,43.10139],[0.78711,43.10137],[0.7865,43.10138],[0.78601,43.1014],[0.78545,43.10146],[0.7849,43.10154],[0.78439,43.10162],[0.78384,43.10174],[0.78332,43.10188],[0.78282,43.10205],[0.78233,43.10224],[0.78184,43.10246],[0.78123,43.10275],[0.77544,43.1056],[0.7705,43.10804],[0.76988,43.10834],[0.76941,43.10855],[0.76893,43.10875],[0.76843,43.10892],[0.76791,43.10908],[0.7674,43.10923],[0.76683,43.10936],[0.76635,43.10947],[0.76575,43.10957],[0.76526,43.10963],[0.76472,43.10969],[0.76418,43.10974],[0.76363,43.10976],[0.76308,43.10976],[0.76234,43.10974],[0.7548,43.10951],[0.75256,43.10944],[0.75183,43.10941],[0.75109,43.10938],[0.75034,43.10932],[0.74962,43.10924],[0.74889,43.10915],[0.74818,43.10905],[0.74611,43.10871],[0.74288,43.10818],[0.73519,43.10689],[0.7347,43.10679],[0.73427,43.10669],[0.73386,43.10658],[0.73366,43.10651],[0.73346,43.10645],[0.73326,43.10638],[0.73303,43.1063],[0.73268,43.10617],[0.73268,43.10617],[0.73209,43.10596],[0.73136,43.10569],[0.73029,43.10529],[0.72921,43.10487],[0.72824,43.1045],[0.72775,43.10431],[0.72721,43.10409],[0.72678,43.10391],[0.72632,43.1037],[0.72576,43.10344],[0.72308,43.10221],[0.714,43.09804],[0.71315,43.09763],[0.7128,43.09744],[0.71251,43.09725],[0.71223,43.09705],[0.71197,43.09683],[0.71154,43.09642],[0.71142,43.09628],[0.71111,43.09583],[0.71067,43.09513],[0.71016,43.09427],[0.70993,43.09391],[0.70969,43.09354],[0.70942,43.09318],[0.70914,43.09283],[0.70883,43.09249],[0.70851,43.09217],[0.70816,43.09186],[0.70779,43.09154],[0.7074,43.09125],[0.70699,43.09098],[0.70664,43.09076],[0.70615,43.09047],[0.7057,43.09024],[0.70522,43.09001],[0.70474,43.0898],[0.70425,43.08961],[0.70376,43.08944],[0.70323,43.08927],[0.7027,43.08913],[0.70217,43.08901],[0.70164,43.08891],[0.70109,43.08882],[0.69938,43.08859],[0.69648,43.08823],[0.6835,43.08656],[0.67165,43.08504],[0.66692,43.08444],[0.66165,43.08376],[0.64964,43.08222],[0.64013,43.08099],[0.63114,43.07984],[0.6189,43.07826],[0.60766,43.07681],[0.60714,43.07675],[0.60128,43.076],[0.59755,43.07552],[0.59237,43.07485],[0.59174,43.07479],[0.59114,43.07475],[0.59053,43.07473],[0.58997,43.07473],[0.58938,43.07475],[0.58879,43.0748],[0.58818,43.07487],[0.58765,43.07495],[0.58706,43.07507],[0.5844,43.07563],[0.58205,43.07613],[0.57977,43.07661],[0.57852,43.07688],[0.57843,43.0769],[0.57838,43.07691],[0.57835,43.07691],[0.57835,43.07691],[0.57832,43.07692],[0.57762,43.07707],[0.57587,43.07743],[0.57348,43.07794],[0.57115,43.07844],[0.57076,43.07852],[0.57039,43.0786],[0.57009,43.07865],[0.56983,43.07869],[0.56955,43.07873],[0.56857,43.07885],[0.56851,43.07886],[0.56851,43.07886],[0.56834,43.07889],[0.56818,43.07892],[0.56802,43.07894],[0.56783,43.07897],[0.56749,43.07902],[0.56726,43.07905],[0.56576,43.07923],[0.56571,43.07923],[0.56431,43.07941],[0.56358,43.07948],[0.56287,43.07952],[0.56214,43.07952],[0.56142,43.07947],[0.56072,43.07938],[0.56003,43.07926],[0.55935,43.07911],[0.55868,43.07892],[0.55659,43.07828],[0.5558,43.07804],[0.55454,43.07766],[0.55303,43.07721],[0.552,43.0769],[0.55098,43.07658],[0.55046,43.07643],[0.55004,43.07633],[0.54962,43.07625],[0.54918,43.07619],[0.54875,43.07617],[0.54831,43.07616],[0.54787,43.07618],[0.54768,43.07619],[0.5474,43.07622],[0.54681,43.07631],[0.54622,43.07645],[0.54589,43.07653],[0.54506,43.07678],[0.54451,43.07692],[0.54393,43.07703],[0.54334,43.07711],[0.54276,43.07714],[0.54215,43.07712],[0.54181,43.07709],[0.54157,43.07707],[0.54098,43.07697],[0.54042,43.07686],[0.53978,43.07671],[0.53848,43.07644],[0.53794,43.07635],[0.53741,43.07627],[0.53703,43.07623],[0.53611,43.07618],[0.53538,43.07614],[0.53471,43.07611],[0.53408,43.07611],[0.53344,43.07615],[0.53282,43.07622],[0.53219,43.07631],[0.53159,43.07643],[0.53089,43.07657],[0.52663,43.07752],[0.52597,43.07764],[0.52528,43.07774],[0.52462,43.07779],[0.52386,43.07783],[0.52252,43.07789],[0.52192,43.07793],[0.52132,43.078],[0.52076,43.07809],[0.52006,43.07823],[0.51648,43.07895],[0.51437,43.07936],[0.51233,43.07978],[0.51174,43.07994],[0.51115,43.08012],[0.51076,43.08025],[0.50809,43.08122],[0.50525,43.08225],[0.50446,43.08251],[0.5038,43.08267],[0.50309,43.0828],[0.50241,43.0829],[0.50184,43.08295],[0.5012,43.08298],[0.50062,43.08299],[0.49996,43.08298],[0.49899,43.083],[0.49837,43.08306],[0.49777,43.08313],[0.49719,43.08323],[0.49653,43.08339],[0.49575,43.08363],[0.49139,43.08543],[0.48892,43.08648],[0.48838,43.08672],[0.48787,43.08699],[0.48736,43.08729],[0.48688,43.08759],[0.4865,43.08786],[0.48537,43.08874],[0.48182,43.09156],[0.48141,43.09186],[0.48095,43.09213],[0.48046,43.09237],[0.48022,43.09248],[0.47991,43.09259],[0.47939,43.09275],[0.47883,43.09289],[0.47821,43.093],[0.47771,43.09307],[0.47654,43.09326],[0.47594,43.09341],[0.4754,43.09357],[0.47485,43.09379],[0.47358,43.09431],[0.47293,43.0945],[0.47224,43.09465],[0.47153,43.09473],[0.47022,43.09479],[0.4696,43.09484],[0.46915,43.09489],[0.4666,43.09526],[0.46644,43.09528],[0.46584,43.09539],[0.46527,43.09551],[0.46468,43.09568],[0.46415,43.09589],[0.46362,43.09613],[0.46246,43.09664],[0.4617,43.09696],[0.46145,43.09705],[0.46084,43.09726],[0.45975,43.09757],[0.45874,43.09784],[0.45763,43.09814],[0.45674,43.09836],[0.45657,43.0984],[0.45641,43.09844],[0.45588,43.09853],[0.45543,43.09858],[0.45499,43.09859],[0.45458,43.09859],[0.45412,43.09856],[0.45299,43.09848],[0.45248,43.09845],[0.45179,43.09847],[0.45117,43.09853],[0.45058,43.09863],[0.44986,43.09876],[0.44915,43.0989],[0.44699,43.0993],[0.44641,43.09939],[0.44577,43.09943],[0.4452,43.09944],[0.44479,43.09942],[0.44467,43.09942],[0.44405,43.0994],[0.44331,43.09936],[0.44268,43.09934],[0.44208,43.09934],[0.4415,43.09936],[0.44088,43.09941],[0.44015,43.09948],[0.43914,43.09957],[0.4384,43.09963],[0.43772,43.09969],[0.43713,43.09975],[0.43653,43.09986],[0.43595,43.09998],[0.43529,43.10014],[0.43464,43.10028],[0.43404,43.10041],[0.43332,43.10051],[0.43322,43.10052],[0.43273,43.10055],[0.43213,43.10056],[0.43157,43.10054],[0.43098,43.10047],[0.4304,43.10038],[0.42984,43.10024],[0.42956,43.10016],[0.42883,43.09991],[0.42747,43.09944],[0.42614,43.09902],[0.42544,43.09881],[0.42486,43.09865],[0.42429,43.09853],[0.4237,43.09846],[0.42311,43.09843],[0.4225,43.09844],[0.4219,43.09849],[0.4213,43.09858],[0.42071,43.09872],[0.42005,43.09897],[0.41961,43.09916],[0.41917,43.0994],[0.4184,43.09992],[0.41719,43.1008],[0.41596,43.10169],[0.41364,43.10338],[0.4133,43.10363],[0.40984,43.10613],[0.40583,43.10905],[0.40526,43.10946],[0.4048,43.1098],[0.40432,43.11013],[0.40327,43.1109],[0.40274,43.11127],[0.40218,43.11164],[0.4016,43.11197],[0.401,43.11228],[0.40036,43.11257],[0.39974,43.11283],[0.39905,43.11309],[0.39839,43.1133],[0.39771,43.11349],[0.39698,43.11367],[0.3964,43.11378],[0.39567,43.1139],[0.39494,43.11399],[0.39434,43.11405],[0.39406,43.11407],[0.39374,43.11409],[0.39374,43.11409],[0.39349,43.1141],[0.39325,43.11411],[0.39288,43.11411],[0.3922,43.11412],[0.3922,43.11412],[0.39111,43.11412],[0.3873,43.11414],[0.38726,43.11414],[0.38726,43.11414]]},"properties":{"name":"Ligne de Bordeaux-Saint-Jean à Sète-Ville, Ligne de Toulouse à Bayonne"}}]}