{"type":"FeatureCollection","features":[{"type":"Feature","geometry":{"type":"LineString","coordinates":[[-3.68793,40.40507],[-3.68892,40.40597],[-3.68892,40.40597],[-3.68991,40.40689],[-3.68997,40.40694],[-3.69004,40.40701],[-3.69008,40.40704],[-3.69026,40.40719],[-3.69041,40.4073],[-3.69075,40.40755],[-3.69096,40.40769],[-3.69117,40.40782],[-3.6916,40.4081],[-3.69195,40.40836],[-3.69228,40.4086],[-3.69248,40.40875],[-3.69311,40.40922],[-3.69363,40.40955],[-3.69402,40.40976],[-3.69445,40.40997],[-3.69566,40.41054],[-3.69757,40.41142],[-3.69984,40.41249],[-3.70105,40.41306],[-3.70136,40.41321],[-3.70159,40.41336],[-3.702,40.41366],[-3.70237,40.414],[-3.70279,40.41458],[-3.70301,40.41504],[-3.70306,40.41535],[-3.703,40.41567],[-3.70284,40.4163],[-3.70279,40.41653],[-3.70272,40.41676],[-3.70265,40.41695],[-3.70261,40.41705],[-3.70253,40.41721],[-3.70224,40.41783],[-3.70224,40.41783]]},"properties":{"name":"Línea Madrid-Valencia, Túnel de la Risa II"}}]}