{"type":"FeatureCollection","features":[{"type":"Feature","geometry":{"type":"LineString","coordinates":[[-4.09469,40.91032],[-4.09445,40.91023],[-4.08579,40.9072],[-4.07485,40.90334],[-4.07485,40.90334],[-4.06914,40.9013],[-4.0245,40.88553],[-4.02082,40.88428],[-4.01284,40.88185],[-4.0017,40.87902],[-3.98993,40.87629],[-3.97411,40.87256],[-3.96491,40.87003],[-3.95405,40.86645],[-3.94815,40.8642],[-3.93891,40.8607],[-3.93668,40.85976],[-3.93367,40.85848],[-3.9116,40.84957],[-3.90766,40.84772],[-3.90398,40.84594],[-3.89568,40.8415],[-3.88932,40.83782],[-3.88355,40.83445],[-3.87805,40.83124],[-3.87177,40.82789],[-3.8675,40.82583],[-3.86341,40.82383],[-3.85633,40.82046],[-3.85051,40.81779],[-3.84685,40.816],[-3.84016,40.81282],[-3.83794,40.81178],[-3.83289,40.80934],[-3.8294,40.80765],[-3.81723,40.80179],[-3.80719,40.797],[-3.79719,40.79216],[-3.79217,40.78951],[-3.78246,40.78337],[-3.77565,40.77774],[-3.77401,40.77651],[-3.77145,40.77434],[-3.76648,40.77011],[-3.76585,40.76961],[-3.76404,40.76809],[-3.76346,40.76761],[-3.76346,40.76761],[-3.76221,40.76649],[-3.76221,40.76649],[-3.76165,40.76601],[-3.76165,40.76601],[-3.7598,40.76446],[-3.757,40.76209],[-3.7567,40.76185],[-3.75477,40.76022],[-3.75264,40.75842],[-3.7511,40.75712],[-3.7511,40.75712],[-3.74781,40.75435],[-3.73672,40.74499],[-3.73439,40.74299],[-3.73323,40.74194],[-3.73158,40.74034],[-3.73085,40.73961],[-3.72984,40.73859],[-3.72746,40.73555],[-3.72623,40.73397],[-3.72485,40.73201],[-3.72354,40.72993],[-3.72204,40.72703],[-3.72094,40.72458],[-3.72012,40.72231],[-3.71954,40.72039],[-3.71911,40.71859],[-3.71861,40.71564],[-3.71845,40.71438],[-3.71811,40.71036],[-3.71797,40.7081],[-3.71775,40.70578],[-3.71754,40.70344],[-3.71736,40.70031],[-3.71717,40.69777],[-3.71708,40.69637],[-3.7166,40.69228],[-3.7163,40.68901],[-3.71593,40.68491],[-3.7156,40.68086],[-3.71539,40.67747],[-3.71544,40.67382],[-3.7155,40.67089],[-3.71582,40.66891],[-3.71659,40.66343],[-3.71709,40.66037],[-3.71774,40.6569],[-3.71801,40.6557],[-3.71831,40.65449],[-3.71862,40.65329],[-3.71896,40.65209],[-3.71931,40.6509],[-3.71969,40.64971],[-3.72002,40.64873],[-3.72043,40.64756],[-3.7211,40.64577],[-3.72229,40.64266],[-3.72253,40.64199],[-3.72271,40.64146],[-3.72304,40.6404],[-3.72319,40.6399],[-3.72331,40.63947],[-3.72341,40.63906],[-3.72367,40.63796],[-3.72384,40.63708],[-3.72395,40.63644],[-3.7241,40.63542],[-3.72422,40.63436],[-3.7243,40.63353],[-3.72438,40.63246],[-3.72448,40.63113],[-3.72476,40.62711],[-3.72481,40.62649],[-3.72486,40.62561],[-3.72505,40.62286],[-3.72505,40.62286],[-3.72526,40.62],[-3.72529,40.61947],[-3.72543,40.61754],[-3.72545,40.61704],[-3.7255,40.61617],[-3.72549,40.61573],[-3.72551,40.61466],[-3.72547,40.61388],[-3.72544,40.61297],[-3.72541,40.61256],[-3.72535,40.61203],[-3.72522,40.61105],[-3.72511,40.61032],[-3.72502,40.60985],[-3.72483,40.60898],[-3.72472,40.60845],[-3.72451,40.60772],[-3.72428,40.60692],[-3.72406,40.60626],[-3.72375,40.60539],[-3.72356,40.6049],[-3.72326,40.60416],[-3.72293,40.60341],[-3.7224,40.60231],[-3.72177,40.60114],[-3.72125,40.60026],[-3.72066,40.59933],[-3.71997,40.59831],[-3.71903,40.597],[-3.71849,40.59627],[-3.7165,40.59357],[-3.7132,40.58908],[-3.7127,40.5884],[-3.71191,40.58726],[-3.71142,40.58641],[-3.71119,40.58597],[-3.71054,40.5845],[-3.71028,40.58379],[-3.71004,40.58297],[-3.70985,40.58217],[-3.70973,40.58143],[-3.70964,40.58063],[-3.70959,40.57938],[-3.70961,40.5788],[-3.70968,40.57792],[-3.70976,40.57734],[-3.70987,40.57669],[-3.71004,40.57599],[-3.71018,40.57547],[-3.71036,40.57492],[-3.71058,40.5743],[-3.71085,40.57367],[-3.71113,40.57307],[-3.71148,40.57242],[-3.71173,40.57198],[-3.71191,40.57169],[-3.7123,40.57109],[-3.71263,40.57061],[-3.71314,40.56989],[-3.71343,40.56947],[-3.71362,40.56917],[-3.71379,40.56891],[-3.71395,40.56863],[-3.71416,40.56825],[-3.71436,40.56784],[-3.7145,40.5675],[-3.71461,40.56725],[-3.71468,40.56706],[-3.71478,40.56677],[-3.71489,40.56642],[-3.71497,40.56611],[-3.71512,40.56547],[-3.71522,40.56482],[-3.71527,40.56417],[-3.71528,40.56352],[-3.71524,40.56287],[-3.7152,40.56254],[-3.71515,40.56216],[-3.71508,40.5618],[-3.71501,40.56148],[-3.71496,40.56129],[-3.71473,40.56052],[-3.71299,40.55519],[-3.71249,40.55373],[-3.71224,40.55306],[-3.71207,40.5526],[-3.71187,40.55215],[-3.71167,40.55171],[-3.71135,40.55108],[-3.7109,40.55025],[-3.71046,40.54951],[-3.70977,40.54846],[-3.7093,40.54776],[-3.70877,40.54696],[-3.70855,40.5466],[-3.70831,40.54618],[-3.708,40.54561],[-3.70722,40.544],[-3.70702,40.5436],[-3.70689,40.54338],[-3.70662,40.54292],[-3.70639,40.54254],[-3.70619,40.54226],[-3.70599,40.54197],[-3.70574,40.54164],[-3.70543,40.54124],[-3.70512,40.54088],[-3.70483,40.54056],[-3.70439,40.5401],[-3.70415,40.53987],[-3.7037,40.53945],[-3.70316,40.53898],[-3.70232,40.5383],[-3.69955,40.53604],[-3.69905,40.53563],[-3.69874,40.53536],[-3.69844,40.53508],[-3.69823,40.53489],[-3.69793,40.53458],[-3.69761,40.53424],[-3.69733,40.53391],[-3.69701,40.53351],[-3.69678,40.53318],[-3.69654,40.53283],[-3.69635,40.53253],[-3.69617,40.53222],[-3.69601,40.5319],[-3.69587,40.53161],[-3.69575,40.53135],[-3.69563,40.53106],[-3.69534,40.53032],[-3.69523,40.53004],[-3.69511,40.52975],[-3.69498,40.52945],[-3.69484,40.52917],[-3.69466,40.52884],[-3.6945,40.52858],[-3.6943,40.52826],[-3.69416,40.52806],[-3.69398,40.52782],[-3.69381,40.52761],[-3.69357,40.52732],[-3.69335,40.52707],[-3.6931,40.52682],[-3.69294,40.52667],[-3.69275,40.52648],[-3.69244,40.52621],[-3.69215,40.52596],[-3.69181,40.5257],[-3.69137,40.52539],[-3.69105,40.52518],[-3.69077,40.525],[-3.68862,40.52376],[-3.68791,40.52335],[-3.68762,40.52317],[-3.68741,40.52304],[-3.68719,40.5229],[-3.68694,40.52272],[-3.68669,40.52252],[-3.68652,40.52236],[-3.68639,40.52224],[-3.68621,40.52206],[-3.68607,40.52189],[-3.68595,40.52175],[-3.6858,40.52156],[-3.68568,40.5214],[-3.68554,40.52118],[-3.6854,40.52094],[-3.68531,40.52075],[-3.68515,40.52041],[-3.68481,40.51957],[-3.68462,40.51909],[-3.68454,40.51888],[-3.68446,40.51867],[-3.68439,40.51842],[-3.6843,40.51803],[-3.68424,40.51772],[-3.68416,40.51725],[-3.68407,40.51672],[-3.68396,40.51617],[-3.68384,40.51564],[-3.68363,40.51484],[-3.6828,40.51177],[-3.68162,40.50744],[-3.68119,40.50583],[-3.68085,40.50459],[-3.68059,40.50366],[-3.6804,40.50296],[-3.68018,40.50216],[-3.67976,40.5008],[-3.67953,40.50007],[-3.67931,40.49942],[-3.67924,40.4992],[-3.67894,40.49828],[-3.67865,40.49738],[-3.67838,40.49659],[-3.67822,40.49609],[-3.67801,40.49545],[-3.67757,40.49411],[-3.67744,40.49375],[-3.67732,40.49338],[-3.67714,40.49283],[-3.67679,40.49172],[-3.67652,40.49089],[-3.67637,40.49043],[-3.67605,40.48947],[-3.67583,40.48879],[-3.67571,40.4884],[-3.67563,40.48814],[-3.67557,40.48787],[-3.67553,40.48765],[-3.67549,40.48744],[-3.67547,40.48722],[-3.67546,40.487],[-3.67545,40.48675],[-3.67546,40.4865],[-3.67547,40.48632],[-3.67549,40.48613],[-3.67551,40.48597],[-3.67554,40.48575],[-3.67558,40.48555],[-3.67563,40.48533],[-3.67568,40.48514],[-3.67575,40.48494],[-3.67581,40.48477],[-3.67588,40.48459],[-3.67595,40.48441],[-3.67622,40.48376],[-3.67645,40.48322],[-3.67662,40.48283],[-3.67675,40.48258],[-3.67691,40.4823],[-3.67721,40.48178],[-3.67726,40.48169],[-3.67726,40.48169],[-3.67789,40.4806],[-3.67795,40.48051],[-3.67795,40.48051],[-3.67832,40.47987],[-3.6784,40.47973],[-3.6784,40.47973],[-3.67854,40.47946],[-3.67858,40.47936],[-3.67858,40.47936],[-3.67863,40.47922],[-3.67868,40.47907],[-3.67872,40.4789],[-3.67872,40.4789],[-3.67881,40.47854],[-3.67881,40.47854],[-3.67883,40.47839],[-3.67885,40.47816],[-3.67885,40.47816],[-3.679,40.4776],[-3.679,40.4776],[-3.67914,40.47708],[-3.67914,40.47708],[-3.67934,40.47629],[-3.67943,40.47602],[-3.67946,40.47592],[-3.6805,40.47343],[-3.68095,40.47238],[-3.68095,40.47238]]},"properties":{"name":"Línea de Alta Velocidad Madrid-Segovia-Valladolid-Burgos, Línea de Alta Velocidad Madrid-Segovia–Valladolid-Burgos"}}]}