{"type":"FeatureCollection","features":[{"type":"Feature","geometry":{"type":"LineString","coordinates":[[-3.70224,40.41783],[-3.70161,40.41915],[-3.70043,40.42095],[-3.69848,40.42397],[-3.69731,40.42584],[-3.69678,40.42667],[-3.69618,40.4276],[-3.69529,40.429],[-3.6946,40.43011],[-3.69401,40.43113],[-3.69383,40.43156],[-3.69361,40.43213],[-3.69329,40.43365],[-3.69325,40.43422],[-3.69319,40.43482],[-3.69308,40.43601],[-3.69284,40.43937],[-3.69275,40.4406],[-3.69283,40.44125],[-3.69306,40.4421],[-3.69316,40.44256],[-3.69319,40.44302],[-3.69318,40.44353],[-3.6931,40.4445],[-3.69296,40.44579],[-3.69291,40.44626],[-3.6928,40.44733],[-3.69276,40.44779],[-3.69254,40.44853],[-3.69226,40.44898],[-3.692,40.44943],[-3.69148,40.45035],[-3.6913,40.45072],[-3.69114,40.45119],[-3.69102,40.45165],[-3.69096,40.45226],[-3.6908,40.45387],[-3.69055,40.45636],[-3.6903,40.45731],[-3.68995,40.45795],[-3.68966,40.45838],[-3.68929,40.45875],[-3.68748,40.46027],[-3.6867,40.46094],[-3.68604,40.46149],[-3.6856,40.46199],[-3.68531,40.46242],[-3.68497,40.46314],[-3.68467,40.46379],[-3.68439,40.46466],[-3.68405,40.46578],[-3.68384,40.46651],[-3.68368,40.46703],[-3.68362,40.46763],[-3.68361,40.46799],[-3.68361,40.46799],[-3.68358,40.46889],[-3.68357,40.46924],[-3.68357,40.46924],[-3.68352,40.46959],[-3.68352,40.46959],[-3.6835,40.47007],[-3.6835,40.47007],[-3.68343,40.47055],[-3.68341,40.47065],[-3.68339,40.47075],[-3.68335,40.47087],[-3.6833,40.47101],[-3.68265,40.47257],[-3.68265,40.47257]]},"properties":{"name":"Túnel de la Risa II, Vía 5"}}]}