{"type":"FeatureCollection","features":[{"type":"Feature","geometry":{"type":"LineString","coordinates":[[4.36621,43.8324],[4.36591,43.83215],[4.36568,43.83196],[4.36546,43.83178],[4.36511,43.83151],[4.36473,43.83121],[4.3643,43.83088],[4.36411,43.83073],[4.36388,43.83055],[4.3636,43.83035],[4.36348,43.83027],[4.36321,43.83009],[4.36267,43.82975],[4.36248,43.82963],[4.36248,43.82963],[4.36172,43.82918],[4.3608,43.82864],[4.35992,43.82812],[4.35961,43.82795],[4.359,43.82759],[4.35861,43.82736],[4.35829,43.82718],[4.35822,43.82713],[4.35742,43.82665],[4.35716,43.8265],[4.35683,43.82631],[4.35547,43.8255],[4.35543,43.82548],[4.35424,43.82483],[4.35373,43.82458],[4.35333,43.82439],[4.35326,43.82436],[4.35311,43.82429],[4.35214,43.82387],[4.35188,43.82376],[4.3515,43.82362],[4.35093,43.82341],[4.35033,43.8232],[4.34955,43.82295],[4.34895,43.82277],[4.34839,43.82262],[4.34789,43.82249],[4.34644,43.82216],[4.34462,43.82173],[4.34325,43.82131],[4.34192,43.82084],[4.34102,43.82048],[4.33984,43.81996],[4.33901,43.81955],[4.33796,43.819],[4.33709,43.81853],[4.33584,43.81784],[4.33553,43.81768],[4.33465,43.8172],[4.33333,43.81649],[4.33239,43.81597],[4.33217,43.81586],[4.33209,43.81582],[4.33185,43.81569],[4.33185,43.81569],[4.33058,43.815],[4.32982,43.81459],[4.32916,43.81423],[4.32857,43.81391],[4.32817,43.81368],[4.32808,43.81363],[4.32788,43.81351],[4.32787,43.8135],[4.32777,43.81345],[4.32777,43.81345],[4.32718,43.8131],[4.32689,43.81291],[4.32638,43.81257],[4.32605,43.81235],[4.32516,43.81175],[4.32461,43.81134],[4.32408,43.81094],[4.32355,43.81052],[4.32302,43.81009],[4.3225,43.80963],[4.3216,43.8088],[4.32137,43.80859],[4.32137,43.80859],[4.32079,43.808],[4.32033,43.8075],[4.31992,43.80703],[4.31952,43.80658],[4.31909,43.80606],[4.31876,43.80564],[4.31841,43.80518],[4.31827,43.80499],[4.31782,43.80439],[4.31668,43.80287],[4.31645,43.80255],[4.31591,43.80185],[4.31543,43.80122],[4.31523,43.80095],[4.31501,43.80064],[4.31486,43.80044],[4.31459,43.8001],[4.31399,43.7993],[4.31339,43.7985],[4.31217,43.79688],[4.31199,43.79663],[4.31164,43.79617],[4.3111,43.79548],[4.31044,43.79469],[4.30989,43.79407],[4.30961,43.79378],[4.30934,43.7935],[4.30878,43.79294],[4.30821,43.7924],[4.30791,43.79213],[4.30764,43.79188],[4.30763,43.79187],[4.30688,43.79124],[4.30611,43.79062],[4.30526,43.78999],[4.3044,43.78938],[4.30411,43.78917],[4.30326,43.78856],[4.3024,43.78795],[4.30069,43.78672],[4.30018,43.78635],[4.29966,43.78597],[4.29861,43.78523],[4.29654,43.78374],[4.29547,43.78297],[4.2944,43.78221],[4.29401,43.78192],[4.29364,43.78165],[4.2929,43.78112],[4.29263,43.78093],[4.29232,43.78072],[4.29173,43.78028],[4.29057,43.77945],[4.29004,43.77907],[4.28951,43.77868],[4.28847,43.7779],[4.28748,43.77712],[4.28697,43.77673],[4.2867,43.77652],[4.28646,43.77634],[4.28449,43.77481],[4.28423,43.7746],[4.28086,43.772],[4.2802,43.77149],[4.27958,43.77101],[4.2793,43.77077],[4.27903,43.77054],[4.27853,43.77007],[4.27822,43.76975],[4.27789,43.7694],[4.27759,43.76906],[4.2773,43.76871],[4.27721,43.76859],[4.27714,43.7685],[4.27689,43.76815],[4.27665,43.7678],[4.27642,43.76744],[4.27622,43.76708],[4.27597,43.76662],[4.27575,43.76614],[4.27534,43.7652],[4.27528,43.76508],[4.2752,43.76493],[4.27492,43.76439],[4.27476,43.76412],[4.2746,43.76387],[4.27425,43.76334],[4.27386,43.76283],[4.27355,43.76245],[4.27323,43.76208],[4.27256,43.7614],[4.27236,43.76121],[4.27215,43.76102],[4.27168,43.76062],[4.27121,43.76025],[4.27073,43.75989],[4.27036,43.75964],[4.26997,43.75938],[4.26916,43.75889],[4.26873,43.75866],[4.26795,43.75826],[4.26769,43.75814],[4.2673,43.75796],[4.26489,43.75689],[4.26454,43.75673],[4.26391,43.75641],[4.26325,43.75605],[4.26266,43.75569],[4.26212,43.75533],[4.26187,43.75517],[4.26136,43.75479],[4.26086,43.75439],[4.26009,43.75371],[4.25984,43.75346],[4.25962,43.75324],[4.25917,43.75277],[4.25846,43.75204],[4.25807,43.75168],[4.25768,43.75133],[4.25699,43.75079],[4.25631,43.75029],[4.25567,43.74988],[4.25501,43.7495],[4.25487,43.74942],[4.2546,43.74927],[4.25215,43.748],[4.24917,43.74645],[4.2491,43.74642],[4.24814,43.74592],[4.24713,43.7454],[4.24713,43.7454],[4.24661,43.74513],[4.24619,43.74492],[4.24554,43.74458],[4.24489,43.74425],[4.24436,43.74399],[4.24382,43.74374],[4.24275,43.74332],[4.24228,43.74314],[4.24175,43.74297],[4.24073,43.74267],[4.23993,43.74247],[4.23909,43.74229],[4.23868,43.7422],[4.2382,43.74212],[4.2377,43.74205],[4.23732,43.742],[4.2368,43.74194],[4.23609,43.74188],[4.23469,43.74178],[4.23022,43.74145],[4.22956,43.7414],[4.22932,43.74139],[4.22819,43.74131],[4.22789,43.74129],[4.22789,43.74129],[4.2262,43.74116],[4.22559,43.74112],[4.22455,43.74103],[4.2239,43.74095],[4.22345,43.74089],[4.22296,43.74082],[4.22282,43.74079],[4.22208,43.74065],[4.22161,43.74055],[4.22128,43.74047],[4.22037,43.74023],[4.21962,43.74],[4.21897,43.73978],[4.21862,43.73964],[4.2184,43.73956],[4.21818,43.73948],[4.21768,43.73927],[4.21737,43.73914],[4.21676,43.73884],[4.21546,43.73817],[4.21455,43.73769],[4.21383,43.73731],[4.21119,43.73592],[4.21022,43.7354],[4.208,43.73424],[4.20481,43.73255],[4.20326,43.73173],[4.20214,43.73114],[4.19776,43.72883],[4.19725,43.72856],[4.19678,43.72833],[4.1958,43.72784],[4.1938,43.72685],[4.19338,43.72665],[4.19312,43.72652],[4.19204,43.72598],[4.18678,43.72349],[4.18651,43.72336],[4.18426,43.72229],[4.18198,43.72122],[4.18157,43.72102],[4.17977,43.72016],[4.1778,43.71922],[4.17758,43.71912],[4.17624,43.71848],[4.17488,43.71784],[4.17464,43.71773],[4.1746,43.71771],[4.17339,43.71713],[4.17215,43.71654],[4.17152,43.71621],[4.17106,43.71597],[4.17091,43.71588],[4.17026,43.71551],[4.17019,43.71547],[4.16972,43.7152],[4.16941,43.71501],[4.16872,43.71458],[4.16807,43.71415],[4.16745,43.71372],[4.16697,43.71337],[4.16629,43.71288],[4.16547,43.71224],[4.16356,43.71077],[4.16182,43.70946],[4.16141,43.70915],[4.16106,43.70888],[4.16045,43.70841],[4.15931,43.70751],[4.1582,43.70661],[4.15804,43.70647],[4.1576,43.70606],[4.15716,43.70561],[4.15708,43.70554],[4.15699,43.70544],[4.15596,43.70426],[4.15543,43.70359],[4.15531,43.7034],[4.15523,43.7033],[4.15516,43.70319],[4.1548,43.70265],[4.15446,43.70207],[4.15427,43.70172],[4.15407,43.70133],[4.15369,43.70058],[4.15358,43.70038],[4.15325,43.69972],[4.15251,43.69821],[4.15245,43.69808],[4.15235,43.6979],[4.15182,43.69679],[4.15176,43.69666],[4.15173,43.69658],[4.14968,43.69248],[4.14959,43.69229],[4.14903,43.69119],[4.14893,43.69098],[4.14873,43.6906],[4.14849,43.69017],[4.14798,43.68933],[4.14767,43.68889],[4.1473,43.68839],[4.14691,43.68789],[4.1465,43.6874],[4.14608,43.68693],[4.14562,43.68646],[4.14515,43.686],[4.14474,43.68564],[4.14437,43.68533],[4.14348,43.68463],[4.14337,43.68455],[4.14274,43.68409],[4.1422,43.68372],[4.14202,43.68361],[4.14154,43.68332],[4.1409,43.68294],[4.14031,43.68262],[4.14031,43.68262],[4.13928,43.6821],[4.13925,43.68208],[4.1388,43.68187],[4.13839,43.68169],[4.13796,43.6815],[4.13765,43.68138],[4.13669,43.68101],[4.13656,43.68096],[4.13647,43.68093],[4.13647,43.68093],[4.13568,43.68066],[4.13519,43.68051],[4.13469,43.68036],[4.13455,43.68033],[4.13428,43.68025],[4.13393,43.68017],[4.13348,43.68006],[4.1329,43.67993],[4.13234,43.67981],[4.13105,43.67959],[4.13036,43.67948],[4.12976,43.6794],[4.12908,43.67932],[4.12842,43.67925],[4.12786,43.6792],[4.12735,43.67916],[4.1267,43.67913],[4.12638,43.67911],[4.12638,43.67911],[4.12587,43.67911],[4.1256,43.67911],[4.12536,43.67911],[4.12482,43.67912],[4.12443,43.67915],[4.12406,43.67917],[4.12313,43.67923],[4.12239,43.67932],[4.12232,43.67932],[4.12232,43.67932],[4.12204,43.67935],[4.1217,43.67939],[4.12101,43.67947],[4.12043,43.67955],[4.12001,43.67962],[4.11923,43.67976],[4.11847,43.67991],[4.1177,43.68009],[4.11685,43.68031],[4.11594,43.68055],[4.1152,43.68074],[4.1148,43.68083],[4.11425,43.68095],[4.11361,43.68108],[4.11272,43.68123],[4.11175,43.68139],[4.11063,43.68158],[4.11022,43.68164],[4.1098,43.6817],[4.10894,43.68181],[4.10789,43.68192],[4.10664,43.682],[4.10537,43.68205],[4.10519,43.68206],[4.10504,43.68206],[4.1028,43.68207],[4.1023,43.68206],[4.10157,43.68204],[4.10096,43.68201],[4.10096,43.68201],[4.10031,43.68198],[4.09983,43.68194],[4.09974,43.68194],[4.09908,43.68188],[4.09792,43.68177],[4.09677,43.68164],[4.09605,43.68154],[4.09533,43.68143],[4.0939,43.68118],[4.09359,43.68113],[4.09238,43.68093],[4.09116,43.68071],[4.0903,43.68056],[4.08904,43.68035],[4.08772,43.68012],[4.08712,43.68002],[4.08527,43.67969],[4.08431,43.67952],[4.08329,43.67935],[4.08174,43.67909],[4.08146,43.67904],[4.08111,43.67897],[4.07801,43.67844],[4.07732,43.67832],[4.07646,43.67817],[4.07595,43.67807],[4.07543,43.67797],[4.07479,43.67781],[4.07413,43.67764],[4.07345,43.67746],[4.07286,43.67727],[4.07193,43.67698],[4.07121,43.67672],[4.06992,43.67625],[4.06852,43.67573],[4.06799,43.67554],[4.06756,43.67539],[4.06622,43.6749],[4.06544,43.67461],[4.06443,43.67423],[4.06375,43.67399],[4.06303,43.67373],[4.06234,43.67348],[4.06174,43.67326],[4.06118,43.67305],[4.06045,43.67279],[4.06017,43.67268],[4.05583,43.67109],[4.05448,43.6706],[4.0543,43.67054],[4.04975,43.66887],[4.04882,43.66853],[4.04593,43.66749],[4.04241,43.66622],[4.03888,43.66493],[4.0318,43.66234],[4.03156,43.66226],[4.03055,43.66186],[4.0295,43.66149],[4.02932,43.66142],[4.02921,43.66138],[4.02876,43.66121],[4.02756,43.66077],[4.02609,43.66024],[4.02348,43.65928],[4.02343,43.65926],[4.01939,43.65778],[4.0193,43.65775],[4.01665,43.65678],[4.01647,43.65672],[4.0162,43.65662],[4.01608,43.65658],[4.01357,43.65565],[4.0135,43.65563],[4.00904,43.654],[4.00899,43.65398],[4.00837,43.65376],[4.00828,43.65372],[4.00823,43.65371],[4.00599,43.65289],[4.00575,43.6528],[3.99997,43.65068],[3.99691,43.64957],[3.99677,43.64951],[3.99634,43.64935],[3.99516,43.64892],[3.99389,43.64845],[3.99301,43.64813],[3.99141,43.64755],[3.99141,43.64755],[3.99053,43.64723],[3.98868,43.64655],[3.98777,43.64622],[3.98723,43.64601],[3.98671,43.64581],[3.98643,43.64569],[3.98607,43.64554],[3.98557,43.6453],[3.98524,43.64514],[3.98491,43.64497],[3.98465,43.64483],[3.98429,43.64464],[3.98411,43.64453],[3.98376,43.64431],[3.98351,43.64416],[3.98318,43.64395],[3.983,43.64383],[3.98277,43.64367],[3.98258,43.64353],[3.98225,43.64328],[3.98187,43.64297],[3.98147,43.64264],[3.98112,43.64231],[3.98095,43.64214],[3.98078,43.64198],[3.98072,43.64191],[3.98016,43.64132],[3.97971,43.64086],[3.97945,43.64061],[3.97919,43.64037],[3.97892,43.64013],[3.97885,43.64006],[3.97839,43.6397],[3.97797,43.63939],[3.97753,43.63907],[3.977,43.63871],[3.97679,43.63859],[3.97648,43.6384],[3.97585,43.63803],[3.97542,43.63781],[3.97496,43.63759],[3.97461,43.63742],[3.97427,43.63727],[3.9739,43.63712],[3.97362,43.63701],[3.97333,43.6369],[3.973,43.63677],[3.97269,43.63666],[3.97234,43.63655],[3.97197,43.63643],[3.97153,43.6363],[3.97106,43.63618],[3.97035,43.63601],[3.97005,43.63594],[3.9697,43.63587],[3.96905,43.63574],[3.96854,43.63566],[3.96814,43.6356],[3.96765,43.63554],[3.9671,43.63548],[3.96662,43.63544],[3.96601,43.6354],[3.96554,43.63539],[3.96508,43.63538],[3.96469,43.63537],[3.96436,43.63537],[3.96404,43.63538],[3.96352,43.6354],[3.96318,43.63542],[3.96289,43.63544],[3.9624,43.63548],[3.96191,43.63553],[3.9616,43.63557],[3.96128,43.63561],[3.96102,43.63564],[3.9607,43.6357],[3.9602,43.63579],[3.95976,43.63587],[3.95939,43.63596],[3.95886,43.63608],[3.95834,43.63621],[3.95675,43.63663],[3.95525,43.63703],[3.95472,43.63718],[3.95287,43.63768],[3.95135,43.63809],[3.94983,43.6385],[3.94918,43.63867],[3.9489,43.63874],[3.94865,43.6388],[3.94835,43.63887],[3.94812,43.63892],[3.94786,43.63898],[3.94759,43.63903],[3.94726,43.63909],[3.94691,43.63915],[3.9466,43.63919],[3.94634,43.63923],[3.94602,43.63927],[3.94593,43.63928],[3.94553,43.63933],[3.94501,43.63937],[3.94461,43.6394],[3.94415,43.63943],[3.94367,43.63945],[3.94314,43.63946],[3.94259,43.63945],[3.94231,43.63945],[3.94204,43.63944],[3.94176,43.63943],[3.94143,43.63942],[3.9412,43.6394],[3.9408,43.63937],[3.94047,43.63934],[3.94016,43.6393],[3.93973,43.63925],[3.93922,43.63918],[3.93882,43.63912],[3.93846,43.63905],[3.93812,43.63899],[3.93767,43.6389],[3.93711,43.63877],[3.93666,43.63865],[3.93623,43.63853],[3.93574,43.63839],[3.93523,43.63823],[3.93427,43.63792],[3.9333,43.6376],[3.93214,43.63723],[3.93127,43.63695],[3.92988,43.63649],[3.92754,43.63573],[3.92568,43.63513],[3.9233,43.63436],[3.92199,43.63393],[3.92161,43.6338],[3.92149,43.63377],[3.92123,43.63368],[3.91841,43.63277],[3.91578,43.63191],[3.91455,43.63151],[3.91333,43.63112],[3.91172,43.63059],[3.91014,43.63008],[3.90813,43.62943],[3.90519,43.62847],[3.90479,43.62834],[3.90474,43.62832],[3.90041,43.62692],[3.90009,43.62681],[3.89938,43.62658],[3.89933,43.62657],[3.89921,43.62653],[3.89834,43.62624],[3.89793,43.6261],[3.89733,43.62588],[3.89708,43.62578],[3.89682,43.62567],[3.89633,43.62546],[3.89586,43.62524],[3.89527,43.62494],[3.89497,43.62477],[3.89468,43.62461],[3.89461,43.62457],[3.89422,43.62434],[3.89372,43.62403],[3.89323,43.62369],[3.89279,43.62337],[3.89233,43.62301],[3.89195,43.62269],[3.89173,43.6225],[3.89146,43.62225],[3.89098,43.62179],[3.88846,43.61941],[3.88829,43.61924],[3.88821,43.61918],[3.888,43.61897],[3.8878,43.61879],[3.8866,43.61764],[3.88538,43.61649],[3.88436,43.61553],[3.88414,43.61531],[3.88403,43.6152],[3.88392,43.61508],[3.8838,43.61496],[3.88375,43.6149],[3.88367,43.6148],[3.88357,43.61467],[3.8835,43.61457],[3.88342,43.61445],[3.88337,43.61437],[3.88333,43.6143],[3.88325,43.61416],[3.88318,43.61402],[3.88314,43.61393],[3.8831,43.61383],[3.88306,43.61372],[3.88301,43.61358],[3.88297,43.61345],[3.88295,43.61337],[3.88293,43.61329],[3.8829,43.61315],[3.88287,43.61291],[3.88286,43.61279],[3.88286,43.61267],[3.88286,43.61245],[3.88288,43.61227],[3.88291,43.61205],[3.88297,43.61169],[3.88305,43.61132],[3.88321,43.61056],[3.88346,43.60932],[3.8835,43.60914],[3.88353,43.60897],[3.88355,43.60876],[3.88356,43.60857],[3.88357,43.60841],[3.88357,43.60841],[3.88356,43.60823],[3.88356,43.60813],[3.88355,43.60804],[3.88352,43.6079],[3.88351,43.60782],[3.88348,43.60769],[3.88345,43.60757],[3.88339,43.6074],[3.88325,43.60706],[3.88317,43.60689],[3.88314,43.60684],[3.88308,43.60673],[3.88304,43.60666],[3.88301,43.6066],[3.88286,43.60639],[3.88278,43.60629],[3.88273,43.60621],[3.88258,43.60601],[3.88247,43.60586],[3.88247,43.60586],[3.8824,43.6058],[3.88238,43.60578],[3.88232,43.60571],[3.88214,43.60556],[3.88203,43.60546],[3.88196,43.6054],[3.88193,43.60536],[3.88184,43.60529],[3.88176,43.60522],[3.88166,43.60515],[3.88147,43.60501],[3.88036,43.60422],[3.88036,43.60422]]},"properties":{"name":"Ligne de Tarascon à Sète, Ligne de Tarascon à Sète-Ville"}}]}