{"type":"FeatureCollection","features":[{"type":"Feature","geometry":{"type":"LineString","coordinates":[[1.48006,43.57364],[1.48023,43.57354],[1.48038,43.57344],[1.48173,43.57258],[1.48228,43.57223],[1.48282,43.57188],[1.48355,43.57141],[1.48428,43.57095],[1.48528,43.57031],[1.48554,43.57015],[1.48573,43.57005],[1.48592,43.56994],[1.48612,43.56982],[1.4863,43.56973],[1.48649,43.56963],[1.48674,43.5695],[1.48703,43.56936],[1.48763,43.56907],[1.48849,43.56867],[1.48917,43.56835],[1.48996,43.56798],[1.49028,43.56783],[1.4904,43.56777],[1.49079,43.56759],[1.49085,43.56756],[1.49108,43.56745],[1.49175,43.56714],[1.49242,43.56682],[1.4931,43.5665],[1.49404,43.56606],[1.49435,43.56591],[1.49471,43.56574],[1.49497,43.56562],[1.49501,43.5656],[1.49547,43.56539],[1.49627,43.56501],[1.49631,43.56499],[1.49683,43.56474],[1.49757,43.56439],[1.49777,43.5643],[1.49806,43.56416],[1.49828,43.56406],[1.4985,43.56394],[1.49867,43.56385],[1.4988,43.56378],[1.49898,43.56368],[1.49914,43.56359],[1.49936,43.56345],[1.49954,43.56333],[1.49975,43.56319],[1.49979,43.56316],[1.49997,43.56302],[1.50008,43.56294],[1.50019,43.56286],[1.50037,43.5627],[1.50052,43.56257],[1.50066,43.56244],[1.5008,43.56231],[1.50093,43.56217],[1.50107,43.56203],[1.50127,43.5618],[1.50145,43.56157],[1.50159,43.56138],[1.5017,43.56123],[1.5018,43.56108],[1.50189,43.56093],[1.502,43.56074],[1.50209,43.56056],[1.50222,43.56032],[1.50239,43.55996],[1.50309,43.55841],[1.50336,43.55783],[1.50349,43.55754],[1.50361,43.55728],[1.50374,43.55701],[1.50388,43.55675],[1.50402,43.55651],[1.50413,43.55634],[1.50424,43.55617],[1.50436,43.556],[1.50447,43.55584],[1.50461,43.55567],[1.50475,43.5555],[1.50491,43.55532],[1.50506,43.55515],[1.5052,43.55501],[1.50536,43.55484],[1.50575,43.55446],[1.50805,43.55221],[1.50926,43.55101],[1.51035,43.54994],[1.51039,43.5499],[1.51253,43.5478],[1.51267,43.54767],[1.51296,43.54738],[1.51324,43.5471],[1.51335,43.54699],[1.51434,43.54603],[1.51482,43.54555],[1.51497,43.54541],[1.51541,43.54497],[1.51559,43.54479],[1.51561,43.54477],[1.51585,43.54454],[1.51613,43.54427],[1.51629,43.54411],[1.51651,43.5439],[1.51672,43.54368],[1.51694,43.54347],[1.51717,43.54325],[1.51761,43.54281],[1.51806,43.54237],[1.5185,43.54194],[1.51888,43.54157],[1.5189,43.54154],[1.51903,43.54142],[1.51939,43.54106],[1.51981,43.54065],[1.52004,43.54044],[1.52027,43.54022],[1.52045,43.54004],[1.52073,43.53979],[1.52107,43.53948],[1.52143,43.53917],[1.52162,43.53902],[1.5218,43.53887],[1.52198,43.53872],[1.52217,43.53857],[1.52242,43.53837],[1.52267,43.53817],[1.52293,43.53798],[1.52319,43.53778],[1.52345,43.53759],[1.52371,43.53739],[1.52422,43.53701],[1.52445,43.53684],[1.52468,43.53667],[1.52511,43.53635],[1.52553,43.53603],[1.52596,43.53571],[1.52666,43.53519],[1.52714,43.53483],[1.52739,43.53464],[1.52764,43.53446],[1.52814,43.53408],[1.5284,43.53389],[1.52866,43.5337],[1.52907,43.53339],[1.52927,43.53324],[1.52949,43.53308],[1.52956,43.53302],[1.53035,43.53243],[1.53075,43.53214],[1.53095,43.53198],[1.53135,43.53169],[1.5318,43.53135],[1.53235,43.53095],[1.53245,43.53087],[1.53264,43.53073],[1.53284,43.53058],[1.5331,43.53038],[1.5333,43.53023],[1.53342,43.53012],[1.53365,43.52993],[1.53388,43.52973],[1.53399,43.52962],[1.5341,43.52951],[1.5342,43.52941],[1.53431,43.5293],[1.53444,43.52915],[1.53458,43.529],[1.53471,43.52884],[1.53484,43.52869],[1.53498,43.5285],[1.53514,43.52829],[1.53529,43.52807],[1.53549,43.52776],[1.5356,43.52759],[1.5357,43.52743],[1.53592,43.52708],[1.53603,43.52691],[1.53616,43.52671],[1.53634,43.52642],[1.53643,43.52628],[1.53678,43.52573],[1.5371,43.52523],[1.53726,43.52498],[1.53734,43.52486],[1.53742,43.52473],[1.53769,43.52431],[1.53782,43.5241],[1.53802,43.5238],[1.53878,43.5226],[1.53925,43.52187],[1.53951,43.52145],[1.53979,43.52101],[1.53986,43.5209],[1.541,43.51911],[1.54103,43.51906],[1.5412,43.5188],[1.54193,43.51766],[1.54203,43.51751],[1.54232,43.51706],[1.54262,43.5166],[1.54281,43.51629],[1.54384,43.51468],[1.54426,43.51404],[1.54453,43.51361],[1.54482,43.51315],[1.54491,43.51301],[1.54494,43.51297],[1.54525,43.51249],[1.54559,43.51196],[1.54562,43.51191],[1.54578,43.51166],[1.54595,43.5114],[1.54681,43.51007],[1.54764,43.50878],[1.54806,43.50813],[1.54848,43.50746],[1.54936,43.50612],[1.5497,43.50556],[1.54997,43.50509],[1.5501,43.50485],[1.55023,43.5046],[1.55098,43.50311],[1.55174,43.50158],[1.55205,43.50097],[1.55236,43.50035],[1.55314,43.49879],[1.55379,43.49748],[1.554,43.49704],[1.55424,43.49658],[1.55481,43.49544],[1.55513,43.4948],[1.55537,43.49432],[1.55549,43.49408],[1.55561,43.49387],[1.55577,43.49361],[1.55591,43.49338],[1.55609,43.4931],[1.55629,43.49282],[1.55647,43.49258],[1.55662,43.49238],[1.55679,43.49218],[1.55701,43.49191],[1.55723,43.49166],[1.55749,43.49138],[1.55787,43.49097],[1.55824,43.49059],[1.55838,43.49044],[1.55845,43.49038],[1.55886,43.48995],[1.55916,43.48963],[1.55936,43.48943],[1.55974,43.48902],[1.55994,43.48881],[1.56015,43.48859],[1.56084,43.48787],[1.561,43.4877],[1.561,43.4877],[1.5619,43.48677],[1.56234,43.4863],[1.56265,43.48598],[1.56337,43.48523],[1.56559,43.48291],[1.56622,43.48225],[1.56678,43.48167],[1.56701,43.48144],[1.56726,43.48121],[1.56749,43.481],[1.56773,43.4808],[1.56795,43.48062],[1.56819,43.48043],[1.56846,43.48022],[1.56867,43.48007],[1.56894,43.47988],[1.56922,43.47969],[1.56969,43.47939],[1.5702,43.47909],[1.57073,43.47877],[1.57126,43.47845],[1.5726,43.47765],[1.57327,43.47725],[1.57361,43.47705],[1.57396,43.47686],[1.57424,43.47671],[1.57452,43.47657],[1.5748,43.47644],[1.57523,43.47624],[1.57581,43.476],[1.57616,43.47585],[1.57622,43.47582],[1.57627,43.4758],[1.57703,43.47548],[1.5778,43.47517],[1.57879,43.47477],[1.57931,43.47457],[1.58037,43.47414],[1.58081,43.47396],[1.58108,43.47384],[1.5814,43.47369],[1.58174,43.47353],[1.58203,43.47338],[1.58238,43.47318],[1.58261,43.47305],[1.58282,43.47292],[1.58315,43.4727],[1.58347,43.47246],[1.58375,43.47227],[1.58499,43.47132],[1.5856,43.47085],[1.5872,43.46963],[1.58739,43.46949],[1.58767,43.46929],[1.58791,43.46912],[1.58816,43.46895],[1.58839,43.46881],[1.58866,43.46864],[1.58896,43.46848],[1.5893,43.4683],[1.58965,43.46813],[1.58998,43.46798],[1.59043,43.46779],[1.5911,43.46751],[1.59215,43.46706],[1.59321,43.46662],[1.5954,43.4657],[1.59693,43.46505],[1.59815,43.46454],[1.59821,43.46452],[1.59992,43.46378],[1.60124,43.46324],[1.60131,43.46321],[1.60167,43.46305],[1.60217,43.46284],[1.60248,43.46269],[1.60277,43.46256],[1.60307,43.46241],[1.60335,43.46227],[1.60371,43.46209],[1.60432,43.46177],[1.6049,43.46146],[1.60552,43.46113],[1.6061,43.46082],[1.60684,43.46043],[1.60763,43.46001],[1.60857,43.45951],[1.61024,43.45863],[1.61074,43.45837],[1.6112,43.45812],[1.61163,43.4579],[1.61208,43.45767],[1.61263,43.4574],[1.61327,43.45709],[1.61389,43.45678],[1.61497,43.45625],[1.61566,43.45592],[1.61572,43.45589],[1.61613,43.45569],[1.61679,43.45537],[1.61753,43.45501],[1.61766,43.45495],[1.6181,43.45473],[1.61968,43.45396],[1.62067,43.45348],[1.6211,43.45329],[1.62144,43.45314],[1.62177,43.453],[1.62224,43.45282],[1.62258,43.4527],[1.623,43.45256],[1.62367,43.45235],[1.62428,43.45216],[1.62546,43.4518],[1.62583,43.45169],[1.62617,43.45158],[1.62624,43.45155],[1.62658,43.45143],[1.62687,43.45132],[1.62723,43.45117],[1.62744,43.45108],[1.62777,43.45092],[1.6281,43.45076],[1.62841,43.45059],[1.62874,43.4504],[1.62906,43.45022],[1.62935,43.45004],[1.6298,43.44977],[1.6306,43.44929],[1.63133,43.44885],[1.63171,43.44862],[1.63205,43.44842],[1.63273,43.44801],[1.63308,43.4478],[1.63345,43.44758],[1.63427,43.44709],[1.63468,43.44683],[1.63513,43.44656],[1.63652,43.44571],[1.63657,43.44569],[1.6376,43.44507],[1.63862,43.44444],[1.63989,43.44368],[1.64116,43.44292],[1.64268,43.44199],[1.64477,43.44074],[1.64545,43.44033],[1.64577,43.44014],[1.64611,43.43995],[1.64646,43.43976],[1.64679,43.4396],[1.6473,43.43935],[1.6488,43.43867],[1.64979,43.43821],[1.65085,43.43772],[1.65138,43.43748],[1.65166,43.43735],[1.65192,43.43723],[1.65361,43.43646],[1.65493,43.43585],[1.6562,43.43526],[1.65829,43.43431],[1.65993,43.43355],[1.66107,43.43303],[1.66147,43.43284],[1.66186,43.43267],[1.6622,43.43253],[1.66291,43.43224],[1.66303,43.43219],[1.66469,43.43153],[1.66631,43.43088],[1.66742,43.43043],[1.66854,43.42998],[1.66967,43.42953],[1.67079,43.42908],[1.67085,43.42905],[1.67089,43.42904],[1.6729,43.42823],[1.67432,43.42766],[1.67574,43.4271],[1.67645,43.42681],[1.67682,43.42666],[1.67717,43.42651],[1.67749,43.42637],[1.67781,43.42621],[1.67812,43.42605],[1.67844,43.42588],[1.67866,43.42575],[1.67892,43.42558],[1.67916,43.42543],[1.67939,43.42527],[1.67982,43.42495],[1.68005,43.42477],[1.68026,43.42459],[1.68082,43.4241],[1.68138,43.4236],[1.68195,43.4231],[1.6831,43.42208],[1.68384,43.42142],[1.68532,43.42012],[1.68668,43.41892],[1.68804,43.41772],[1.68842,43.41739],[1.68869,43.41717],[1.68888,43.41702],[1.68911,43.41684],[1.68931,43.4167],[1.6896,43.41651],[1.68989,43.41632],[1.69006,43.41622],[1.69026,43.4161],[1.69053,43.41596],[1.69082,43.4158],[1.69112,43.41567],[1.69141,43.41553],[1.69172,43.4154],[1.692,43.41529],[1.69232,43.41517],[1.69273,43.41502],[1.6932,43.41485],[1.69389,43.41461],[1.69507,43.41421],[1.69566,43.41401],[1.69631,43.41378],[1.69652,43.41371],[1.69721,43.41347],[1.69828,43.41311],[1.69883,43.41292],[1.69936,43.41273],[1.69986,43.41254],[1.70013,43.41243],[1.70039,43.41232],[1.70073,43.41216],[1.70092,43.41208],[1.70116,43.41195],[1.70165,43.41169],[1.70192,43.41153],[1.70213,43.4114],[1.70242,43.41121],[1.70272,43.41099],[1.70297,43.41081],[1.70327,43.41056],[1.70357,43.4103],[1.70383,43.41005],[1.70409,43.40979],[1.70442,43.40944],[1.70508,43.40872],[1.70553,43.40822],[1.70591,43.40781],[1.70739,43.4062],[1.70857,43.40492],[1.70974,43.40365],[1.71075,43.40254],[1.71081,43.40248],[1.71126,43.40199],[1.71144,43.4018],[1.71144,43.4018],[1.71231,43.40085],[1.7126,43.40053],[1.71271,43.40041],[1.71275,43.40036],[1.71283,43.40028],[1.71294,43.40017],[1.71304,43.40006],[1.71325,43.39985],[1.71411,43.39898],[1.71462,43.39843],[1.71462,43.39842],[1.71487,43.39815],[1.71513,43.39788],[1.7153,43.3977],[1.71548,43.39753],[1.71569,43.39734],[1.71591,43.39715],[1.71608,43.397],[1.71617,43.39693],[1.71627,43.39686],[1.71644,43.39673],[1.71662,43.3966],[1.71697,43.39636],[1.71731,43.39614],[1.71776,43.39586],[1.71834,43.39552],[1.71864,43.39534],[1.71953,43.3948],[1.71999,43.39452],[1.72058,43.39416],[1.72091,43.39394],[1.72127,43.3937],[1.72157,43.39349],[1.72192,43.39323],[1.72227,43.39295],[1.72282,43.39249],[1.72349,43.39191],[1.72417,43.39132],[1.72458,43.39097],[1.72515,43.39047],[1.72595,43.38977],[1.72653,43.38928],[1.7271,43.38878],[1.72753,43.38841],[1.72797,43.38804],[1.72834,43.38774],[1.7287,43.38746],[1.72893,43.38729],[1.72933,43.38701],[1.72975,43.38674],[1.73013,43.3865],[1.73053,43.38627],[1.73091,43.38606],[1.73133,43.38584],[1.73155,43.38573],[1.73179,43.38561],[1.73211,43.38546],[1.7324,43.38534],[1.73279,43.38516],[1.73311,43.38504],[1.73351,43.38488],[1.73411,43.38466],[1.73471,43.38445],[1.73681,43.3837],[1.73787,43.38332],[1.73897,43.38293],[1.7412,43.38213],[1.74268,43.3816],[1.74416,43.38107],[1.7466,43.3802],[1.74758,43.37985],[1.74872,43.37944],[1.74928,43.37921],[1.74968,43.37904],[1.75,43.3789],[1.75041,43.37871],[1.75107,43.37839],[1.7516,43.37812],[1.75216,43.37784],[1.75379,43.37701],[1.75537,43.37621],[1.75628,43.37575],[1.75705,43.37536],[1.75746,43.37515],[1.75789,43.37493],[1.75869,43.37453],[1.75953,43.3741],[1.76094,43.37339],[1.76221,43.37274],[1.76378,43.37194],[1.76504,43.3713],[1.76512,43.37126],[1.76572,43.37096],[1.76633,43.37066],[1.76701,43.37035],[1.76747,43.37015],[1.7686,43.36968],[1.76978,43.36923],[1.77186,43.36844],[1.77277,43.36809],[1.77371,43.36773],[1.77447,43.36745],[1.77491,43.36729],[1.7754,43.36712],[1.77603,43.36691],[1.77665,43.36671],[1.77712,43.36656],[1.77748,43.36646],[1.77788,43.36634],[1.7785,43.36617],[1.7805,43.36566],[1.78244,43.36516],[1.78387,43.3648],[1.78398,43.36477],[1.78467,43.36459],[1.78675,43.36407],[1.78774,43.36381],[1.78911,43.36346],[1.79084,43.36302],[1.79256,43.36258],[1.79454,43.36208],[1.79552,43.36183],[1.79653,43.36157],[1.79873,43.36101],[1.79984,43.36072],[1.80029,43.36059],[1.80065,43.36047],[1.80104,43.36033],[1.80148,43.36016],[1.80173,43.36006],[1.80179,43.36003],[1.80233,43.35978],[1.80279,43.35955],[1.8032,43.35931],[1.80347,43.35915],[1.80374,43.35898],[1.80412,43.35871],[1.8047,43.35828],[1.80614,43.35716],[1.80656,43.35684],[1.80708,43.35644],[1.80763,43.35603],[1.81008,43.35414],[1.81129,43.3532],[1.8125,43.35227],[1.81359,43.35144],[1.81467,43.35061],[1.81502,43.35035],[1.81536,43.3501],[1.81543,43.35005],[1.81568,43.34988],[1.81616,43.34958],[1.81643,43.34942],[1.81669,43.34926],[1.81744,43.3488],[1.81835,43.34826],[1.81925,43.34772],[1.82056,43.34693],[1.82413,43.34479],[1.82592,43.34372],[1.82784,43.34257],[1.82794,43.34251],[1.8305,43.34096],[1.8318,43.34019],[1.83307,43.33942],[1.83459,43.33851],[1.83537,43.33804],[1.83615,43.3376],[1.83654,43.33739],[1.8369,43.3372],[1.83728,43.33702],[1.83779,43.33679],[1.83813,43.33664],[1.83852,43.33648],[1.83904,43.33629],[1.83996,43.33594],[1.84232,43.33505],[1.84473,43.33414],[1.84616,43.33361],[1.84833,43.33279],[1.85007,43.33214],[1.85169,43.33153],[1.85226,43.33131],[1.8528,43.33112],[1.85321,43.33098],[1.85364,43.33084],[1.85432,43.33063],[1.85532,43.33032],[1.85647,43.32997],[1.85769,43.32959],[1.85903,43.32918],[1.86053,43.32872],[1.86262,43.32808],[1.86364,43.32776],[1.86461,43.32746],[1.86561,43.32716],[1.86717,43.32668],[1.86871,43.3262],[1.87276,43.32495],[1.87573,43.32404],[1.87696,43.32366],[1.87835,43.32323],[1.88013,43.32268],[1.88175,43.32218],[1.88307,43.32177],[1.88405,43.32148],[1.88458,43.32132],[1.88509,43.32118],[1.88517,43.32116],[1.88565,43.32104],[1.88612,43.32092],[1.88657,43.32082],[1.88692,43.32074],[1.88771,43.32057],[1.88896,43.32032],[1.89021,43.32008],[1.89193,43.31974],[1.89276,43.31957],[1.89357,43.3194],[1.89418,43.31927],[1.89428,43.31925],[1.89522,43.31907],[1.8961,43.31889],[1.89621,43.31887],[1.89739,43.31864],[1.90044,43.31805],[1.90308,43.31753],[1.9063,43.3169],[1.91133,43.31592],[1.91138,43.31591],[1.91143,43.3159],[1.913,43.31559],[1.91525,43.31515],[1.91749,43.31471],[1.91822,43.31458],[1.91871,43.3145],[1.91912,43.31444],[1.91954,43.31438],[1.91997,43.31433],[1.92045,43.31428],[1.92094,43.31424],[1.92199,43.31417],[1.92513,43.31394],[1.9267,43.31383],[1.92825,43.31371],[1.92846,43.3137],[1.93631,43.31313],[1.94011,43.31285],[1.94243,43.31269],[1.94243,43.31269],[1.94349,43.31261],[1.94622,43.31241],[1.94625,43.31241],[1.94625,43.31241],[1.94772,43.3123],[1.94991,43.31214],[1.95029,43.31211],[1.95057,43.31209],[1.95114,43.31204],[1.95156,43.312],[1.95194,43.31195],[1.95226,43.3119],[1.95258,43.31184],[1.95283,43.31179],[1.95309,43.31174],[1.95337,43.31167],[1.95364,43.31161],[1.95414,43.31147],[1.95462,43.31132],[1.95487,43.31124],[1.95509,43.31116],[1.95545,43.31102],[1.95571,43.31091],[1.95595,43.31081],[1.95648,43.31056],[1.9566,43.3105],[1.95665,43.31047],[1.95676,43.31042],[1.95706,43.31026],[1.95745,43.31005],[1.95784,43.30983],[1.95864,43.30937],[1.95902,43.30916],[1.96012,43.30854],[1.96245,43.30721],[1.96478,43.30589],[1.96608,43.30515],[1.9674,43.3044],[1.96889,43.30355],[1.97002,43.3029],[1.97182,43.30188],[1.97193,43.30182],[1.97228,43.30162],[1.97243,43.30153],[1.97494,43.30011],[1.97684,43.29903],[1.97784,43.29846],[1.97829,43.2982],[1.97875,43.29794],[1.9789,43.29785],[1.98083,43.29676],[1.98326,43.29538],[1.98598,43.29383],[1.98734,43.29306],[1.98801,43.29267],[1.98893,43.29215],[1.99026,43.29139],[1.99031,43.29136],[1.99037,43.29133],[1.99392,43.28931],[1.9957,43.2883],[1.99757,43.28723],[1.99766,43.28718],[1.99797,43.287],[1.99835,43.28679],[1.99843,43.28674],[1.99882,43.28652],[2.00092,43.28533],[2.00437,43.28336],[2.00444,43.28332],[2.00534,43.28281],[2.00624,43.2823],[2.00858,43.28097],[2.01042,43.27991],[2.01088,43.27965],[2.01094,43.27962],[2.01228,43.27886],[2.01367,43.27807],[2.01491,43.27736],[2.01599,43.27674],[2.01712,43.2761],[2.01904,43.27501],[2.02083,43.27398],[2.02177,43.27345],[2.03006,43.26872],[2.03137,43.26798],[2.03261,43.26727],[2.03323,43.26692],[2.03388,43.26656],[2.0344,43.26629],[2.03491,43.26605],[2.03544,43.26581],[2.03605,43.26554],[2.03687,43.2652],[2.03772,43.26486],[2.03964,43.26408],[2.0405,43.26373],[2.04198,43.26313],[2.04297,43.26273],[2.0463,43.26138],[2.04799,43.26069],[2.04965,43.26001],[2.05095,43.25948],[2.05102,43.25945],[2.0525,43.25885],[2.05544,43.25766],[2.05842,43.25644],[2.05913,43.25615],[2.05986,43.25586],[2.06029,43.2557],[2.06061,43.25558],[2.06093,43.25547],[2.06147,43.25529],[2.06205,43.25511],[2.06259,43.25495],[2.06304,43.25483],[2.0635,43.25471],[2.06393,43.2546],[2.0644,43.2545],[2.0649,43.2544],[2.06541,43.2543],[2.06594,43.25419],[2.06659,43.25407],[2.06796,43.25381],[2.06934,43.25354],[2.07156,43.25311],[2.07889,43.2517],[2.08621,43.2503],[2.0888,43.2498],[2.09488,43.24864],[2.09683,43.24826],[2.09877,43.24789],[2.10131,43.2474],[2.10275,43.24712],[2.10384,43.24691],[2.10699,43.24631],[2.10858,43.246],[2.11017,43.2457],[2.11125,43.24549],[2.11132,43.24547],[2.11157,43.24543],[2.11289,43.24517],[2.11403,43.24496],[2.11403,43.24496],[2.11541,43.24469],[2.1159,43.2446],[2.11641,43.24452],[2.117,43.24443],[2.1193,43.24407],[2.1207,43.24385],[2.12121,43.24377],[2.12155,43.24372],[2.12194,43.24366],[2.12224,43.24362],[2.12257,43.24358],[2.12299,43.24353],[2.1234,43.24349],[2.1241,43.24343],[2.12447,43.24339],[2.12527,43.24331],[2.12641,43.2432],[2.12901,43.24294],[2.13037,43.2428],[2.13273,43.24257],[2.13453,43.24239],[2.13507,43.24234],[2.1365,43.2422],[2.13916,43.24194],[2.1418,43.24168],[2.14416,43.24144],[2.14537,43.24133],[2.1462,43.24124],[2.14674,43.2412],[2.14707,43.24117],[2.14764,43.24114],[2.14795,43.24113],[2.14827,43.24112],[2.14863,43.24112],[2.14915,43.24113],[2.14967,43.24114],[2.15017,43.24117],[2.15069,43.24121],[2.1511,43.24124],[2.15156,43.24129],[2.15197,43.24134],[2.15237,43.2414],[2.15284,43.24147],[2.15325,43.24155],[2.15365,43.24162],[2.15407,43.24171],[2.15496,43.2419],[2.15516,43.24195],[2.15656,43.24226],[2.15868,43.24272],[2.15949,43.2429],[2.16046,43.24311],[2.16152,43.24335],[2.1621,43.24347],[2.16217,43.24349],[2.16315,43.24368],[2.16372,43.24378],[2.16423,43.24386],[2.16463,43.24391],[2.16499,43.24395],[2.16534,43.24398],[2.16575,43.24401],[2.16608,43.24403],[2.16642,43.24405],[2.16691,43.24406],[2.16743,43.24407],[2.16749,43.24407],[2.16798,43.24406],[2.16835,43.24405],[2.16873,43.24404],[2.16915,43.24401],[2.16959,43.24398],[2.16994,43.24395],[2.17023,43.24391],[2.1705,43.24388],[2.17064,43.24386],[2.171,43.24382],[2.17164,43.24372],[2.17349,43.24344],[2.17548,43.24314],[2.17561,43.24313],[2.1772,43.24289],[2.17921,43.24259],[2.1812,43.24229],[2.18295,43.24203],[2.18635,43.24152],[2.18974,43.24101],[2.19178,43.2407],[2.19275,43.24055],[2.19376,43.2404],[2.19574,43.2401],[2.19775,43.2398],[2.19972,43.23951],[2.2017,43.23921],[2.2018,43.23919],[2.20262,43.23907],[2.20311,43.23901],[2.20363,43.23895],[2.2042,43.23889],[2.20474,43.23884],[2.20511,43.23881],[2.20558,43.23879],[2.2062,43.23876],[2.20668,43.23875],[2.2073,43.23874],[2.2079,43.23875],[2.20838,43.23876],[2.2087,43.23877],[2.20916,43.23879],[2.2096,43.23882],[2.21004,43.23885],[2.21161,43.23899],[2.21342,43.23914],[2.21454,43.23924],[2.21525,43.2393],[2.21643,43.2394],[2.21823,43.23956],[2.22018,43.23973],[2.22171,43.23986],[2.22256,43.23993],[2.22349,43.24001],[2.22593,43.24022],[2.22718,43.24033],[2.22808,43.24041],[2.23025,43.2406],[2.23213,43.24076],[2.23306,43.24084],[2.23375,43.2409],[2.23382,43.2409],[2.23506,43.24101],[2.23656,43.24114],[2.23665,43.24115],[2.23776,43.24124],[2.23884,43.24133],[2.24034,43.24146],[2.2411,43.24153],[2.24185,43.24159],[2.24239,43.24164],[2.24286,43.24169],[2.24328,43.24174],[2.24364,43.24179],[2.24398,43.24184],[2.24432,43.24189],[2.24466,43.24195],[2.24508,43.24204],[2.24546,43.24212],[2.24583,43.2422],[2.24617,43.24229],[2.24653,43.24238],[2.24693,43.2425],[2.24722,43.24258],[2.24751,43.24267],[2.2479,43.2428],[2.24825,43.24293],[2.2486,43.24306],[2.24892,43.24318],[2.24937,43.24336],[2.24981,43.24354],[2.25117,43.24409],[2.25173,43.24431],[2.25205,43.24443],[2.25224,43.2445],[2.25241,43.24456],[2.2525,43.24459],[2.25288,43.24471],[2.25324,43.24482],[2.25357,43.2449],[2.25395,43.24499],[2.25426,43.24506],[2.25465,43.24513],[2.25499,43.24519],[2.25536,43.24524],[2.25567,43.24528],[2.25606,43.24532],[2.25643,43.24535],[2.25676,43.24537],[2.25719,43.24538],[2.2576,43.24538],[2.25822,43.24538],[2.2592,43.24537],[2.26019,43.24535],[2.26132,43.24534],[2.2621,43.24533],[2.26272,43.24532],[2.26283,43.24532],[2.2636,43.24531],[2.26552,43.24528],[2.26697,43.24526],[2.2678,43.24525],[2.26865,43.24524],[2.26968,43.24523],[2.27117,43.24521],[2.27153,43.2452],[2.27186,43.24519],[2.2723,43.24517],[2.27265,43.24515],[2.27309,43.24511],[2.27347,43.24506],[2.27384,43.24501],[2.27416,43.24495],[2.27454,43.24488],[2.27484,43.24482],[2.27514,43.24475],[2.27556,43.24464],[2.27586,43.24455],[2.27625,43.24443],[2.27662,43.24431],[2.27862,43.24362],[2.27985,43.24319],[2.28153,43.24261],[2.28237,43.24231],[2.28318,43.24203],[2.28395,43.24177],[2.28448,43.24158],[2.28503,43.24139],[2.28602,43.24105],[2.28702,43.24069],[2.28755,43.24049],[2.2879,43.24035],[2.28843,43.24012],[2.28884,43.23993],[2.28927,43.23972],[2.2896,43.23955],[2.29001,43.23933],[2.29042,43.23909],[2.29141,43.23851],[2.29191,43.23821],[2.29232,43.23797],[2.29355,43.23724],[2.29417,43.23688],[2.29449,43.23669],[2.2948,43.23651],[2.2956,43.23604],[2.29703,43.23519],[2.29866,43.23423],[2.30073,43.23301],[2.30176,43.23241],[2.3028,43.23179],[2.30426,43.23094],[2.30644,43.22965],[2.30718,43.22926],[2.30793,43.22891],[2.3087,43.22862],[2.30948,43.2284],[2.31021,43.22824],[2.31099,43.2281],[2.31172,43.22803],[2.31269,43.228],[2.31344,43.22802],[2.3143,43.22808],[2.31612,43.22823],[2.31769,43.22834],[2.31871,43.22843],[2.31924,43.22845],[2.31941,43.22846],[2.31995,43.22846],[2.32052,43.22843],[2.32118,43.22836],[2.32174,43.22828],[2.32235,43.22815],[2.32288,43.22803],[2.32357,43.22783],[2.32417,43.22761],[2.32467,43.2274],[2.32535,43.22707],[2.32595,43.22673],[2.32687,43.22608],[2.32777,43.22526],[2.32841,43.22465],[2.32849,43.22458],[2.32911,43.224],[2.32982,43.22333],[2.32987,43.22329],[2.33024,43.22294],[2.33072,43.2225],[2.33112,43.22212],[2.33148,43.22179],[2.3321,43.22121],[2.33272,43.22063],[2.33299,43.22038],[2.33325,43.22015],[2.33342,43.22001],[2.33359,43.21987],[2.33384,43.21968],[2.33399,43.21958],[2.33415,43.21947],[2.33437,43.21933],[2.33461,43.21918],[2.33482,43.21906],[2.33504,43.21895],[2.33524,43.21885],[2.33544,43.21875],[2.33566,43.21865],[2.33593,43.21855],[2.3362,43.21844],[2.33649,43.21833],[2.33678,43.21824],[2.33707,43.21815],[2.33737,43.21806],[2.33767,43.21799],[2.33793,43.21792],[2.33823,43.21786],[2.33855,43.2178],[2.33885,43.21776],[2.33917,43.21772],[2.33936,43.2177],[2.33965,43.21767],[2.33993,43.21766],[2.34027,43.21765],[2.34052,43.21764],[2.34073,43.21764],[2.34098,43.21765],[2.34123,43.21766],[2.34169,43.21768],[2.34263,43.21773],[2.34357,43.21778],[2.34466,43.21783],[2.34556,43.21788],[2.34556,43.21788],[2.34634,43.21792],[2.34671,43.21794],[2.34795,43.21804],[2.34892,43.2181],[2.34975,43.21815],[2.35042,43.21818],[2.35109,43.21822],[2.35181,43.21825],[2.35246,43.21829],[2.35318,43.21833],[2.35371,43.21834],[2.354,43.21835],[2.35456,43.21836],[2.35519,43.21837],[2.35562,43.21838],[2.35655,43.21843],[2.35857,43.21853],[2.35947,43.21858],[2.3602,43.21862],[2.36092,43.21866],[2.36175,43.21869],[2.36177,43.21869],[2.36344,43.21878],[2.36502,43.21886],[2.36502,43.21886],[2.36575,43.2189],[2.36648,43.21894],[2.36669,43.21895],[2.36969,43.21911],[2.37302,43.21928],[2.37735,43.21951],[2.3829,43.21979],[2.38379,43.21982],[2.38484,43.21982],[2.38578,43.2198],[2.38682,43.21975],[2.38782,43.21967],[2.38893,43.21953],[2.3896,43.21944],[2.39029,43.21933],[2.39139,43.21911],[2.39231,43.2189],[2.39308,43.2187],[2.39382,43.21849],[2.39459,43.21825],[2.39518,43.21805],[2.3961,43.21771],[2.39744,43.21716],[2.39876,43.21659],[2.401,43.21563],[2.40254,43.21497],[2.40321,43.21467],[2.40811,43.21258],[2.41256,43.21064],[2.4136,43.2102],[2.41527,43.20948],[2.41576,43.20927],[2.41624,43.20907],[2.41629,43.20904],[2.41665,43.20889],[2.41693,43.20877],[2.41756,43.2085],[2.41826,43.2082],[2.41891,43.20792],[2.41989,43.20752],[2.4205,43.2073],[2.42118,43.2071],[2.42179,43.20694],[2.42241,43.20681],[2.423,43.20671],[2.42384,43.2066],[2.42452,43.20654],[2.42522,43.20652],[2.42617,43.20652],[2.4275,43.20653],[2.42862,43.20653],[2.42912,43.20653],[2.42966,43.20651],[2.43028,43.20645],[2.43071,43.2064],[2.43119,43.20632],[2.4317,43.20623],[2.43197,43.20617],[2.43231,43.20611],[2.43282,43.20601],[2.43403,43.20575],[2.43449,43.20565],[2.43496,43.20552],[2.43532,43.20541],[2.43564,43.20531],[2.43595,43.20519],[2.43633,43.20504],[2.43676,43.20484],[2.43709,43.20467],[2.43755,43.20441],[2.43792,43.20417],[2.43831,43.20391],[2.43875,43.20361],[2.43929,43.20323],[2.43936,43.20319],[2.43968,43.20297],[2.44013,43.20267],[2.4403,43.20255],[2.44109,43.20203],[2.4415,43.20175],[2.4419,43.20148],[2.44259,43.20101],[2.44345,43.20043],[2.44449,43.19973],[2.4455,43.19905],[2.44621,43.19856],[2.44662,43.19829],[2.44719,43.19792],[2.4477,43.19761],[2.4482,43.19734],[2.44871,43.19707],[2.44922,43.19681],[2.44971,43.19656],[2.45023,43.19631],[2.45075,43.19609],[2.45106,43.19598],[2.45131,43.19589],[2.45187,43.19572],[2.45244,43.19557],[2.45303,43.19543],[2.45362,43.19531],[2.45422,43.19522],[2.45483,43.19515],[2.45545,43.1951],[2.45606,43.19507],[2.45726,43.19506],[2.45746,43.19506],[2.45878,43.19505],[2.45947,43.19503],[2.45987,43.195],[2.46032,43.19497],[2.46094,43.19489],[2.46155,43.1948],[2.46215,43.19468],[2.46268,43.19456],[2.46326,43.19439],[2.46382,43.19422],[2.46439,43.19401],[2.46493,43.19378],[2.46547,43.19353],[2.46594,43.1933],[2.46615,43.19319],[2.46657,43.19298],[2.46746,43.19254],[2.46802,43.19226],[2.46854,43.192],[2.46898,43.19178],[2.47003,43.19125],[2.47067,43.19093],[2.47155,43.1905],[2.47238,43.19011],[2.47315,43.18976],[2.47414,43.18931],[2.4752,43.18886],[2.47627,43.18841],[2.47735,43.18798],[2.47807,43.1877],[2.47952,43.18715],[2.48035,43.18687],[2.48071,43.18677],[2.48146,43.18658],[2.48205,43.18645],[2.4827,43.18634],[2.48362,43.18623],[2.48455,43.18614],[2.48713,43.18589],[2.488,43.18581],[2.49131,43.18548],[2.49519,43.1851],[2.50128,43.18449],[2.50362,43.18426],[2.50411,43.18422],[2.50502,43.18415],[2.50549,43.18413],[2.50646,43.18413],[2.50736,43.18418],[2.50832,43.1843],[2.50954,43.18453],[2.51147,43.18494],[2.51225,43.1851],[2.51283,43.1852],[2.51361,43.1853],[2.51444,43.18537],[2.5151,43.18539],[2.51567,43.18539],[2.5159,43.18538],[2.51668,43.18534],[2.5203,43.18506],[2.52163,43.18496],[2.52295,43.18486],[2.52697,43.18454],[2.52794,43.18448],[2.52903,43.18444],[2.53008,43.18447],[2.53109,43.18457],[2.53213,43.18474],[2.53341,43.18505],[2.53608,43.18577],[2.53704,43.186],[2.53926,43.18639],[2.54128,43.18672],[2.54246,43.18692],[2.54327,43.18703],[2.54403,43.18711],[2.54486,43.18714],[2.54555,43.18714],[2.54632,43.1871],[2.54709,43.18704],[2.54791,43.18692],[2.54801,43.1869],[2.54812,43.18688],[2.54859,43.18679],[2.54939,43.1866],[2.55019,43.18636],[2.55084,43.18612],[2.55154,43.18583],[2.55216,43.18553],[2.55282,43.18518],[2.55382,43.1846],[2.55499,43.18394],[2.5554,43.1837],[2.55582,43.18349],[2.55621,43.18331],[2.55659,43.18316],[2.55712,43.18297],[2.55766,43.18279],[2.55826,43.18262],[2.55907,43.18244],[2.55979,43.18229],[2.56042,43.18219],[2.56073,43.18216],[2.56177,43.18206],[2.56336,43.18193],[2.56433,43.18185],[2.5645,43.18184],[2.5645,43.18184],[2.56575,43.18174],[2.56664,43.18168],[2.5678,43.18158],[2.5698,43.18142],[2.57056,43.18141],[2.57137,43.18144],[2.57236,43.18152],[2.57307,43.18162],[2.57393,43.18178],[2.57475,43.18197],[2.57741,43.18269],[2.58122,43.18365],[2.58195,43.18382],[2.58288,43.18398],[2.58381,43.18408],[2.58488,43.18417],[2.58588,43.18429],[2.58689,43.18446],[2.58795,43.18469],[2.5884,43.1848],[2.5896,43.18512],[2.59082,43.18543],[2.59276,43.18593],[2.59393,43.18624],[2.59449,43.18641],[2.59586,43.18683],[2.59805,43.18749],[2.59838,43.18758],[2.60064,43.18827],[2.60085,43.18833],[2.60218,43.18874],[2.60329,43.18907],[2.60423,43.18934],[2.60488,43.18947],[2.60582,43.18963],[2.60652,43.18972],[2.60766,43.18979],[2.60861,43.18979],[2.60941,43.18975],[2.61047,43.18963],[2.61129,43.18949],[2.61214,43.18931],[2.61292,43.18908],[2.61359,43.18886],[2.61439,43.18855],[2.61506,43.18824],[2.6158,43.18783],[2.61652,43.18741],[2.61882,43.18605],[2.61911,43.18589],[2.61976,43.18554],[2.62059,43.18518],[2.62135,43.18491],[2.62244,43.18462],[2.62334,43.18443],[2.62431,43.18431],[2.62471,43.18427],[2.62585,43.18424],[2.62671,43.18426],[2.62745,43.18433],[2.62857,43.18451],[2.62903,43.1846],[2.62951,43.18471],[2.63024,43.18489],[2.63146,43.18519],[2.63146,43.18519],[2.63257,43.18548],[2.63315,43.18562],[2.63373,43.18574],[2.63435,43.18587],[2.63492,43.18596],[2.63523,43.186],[2.6355,43.18602],[2.63581,43.18605],[2.63612,43.18607],[2.63665,43.1861],[2.63723,43.18612],[2.63772,43.18613],[2.63843,43.18615],[2.63864,43.18615],[2.63911,43.18616],[2.63966,43.18617],[2.64059,43.18621],[2.64109,43.18622],[2.64178,43.18624],[2.6426,43.18626],[2.6438,43.18629],[2.64498,43.1863],[2.64551,43.18629],[2.64579,43.18628],[2.64608,43.18627],[2.64639,43.18624],[2.64666,43.18622],[2.64695,43.18619],[2.6472,43.18616],[2.64747,43.18612],[2.64775,43.18608],[2.64803,43.18603],[2.64835,43.18596],[2.64866,43.18589],[2.64894,43.18582],[2.64923,43.18575],[2.64951,43.18567],[2.64981,43.18558],[2.65009,43.18549],[2.65153,43.185],[2.65248,43.18468],[2.65252,43.18466],[2.65324,43.18444],[2.65397,43.18422],[2.6546,43.18406],[2.65522,43.18392],[2.65566,43.18384],[2.6561,43.18375],[2.65638,43.18371],[2.65763,43.18354],[2.65851,43.18345],[2.65944,43.1834],[2.66195,43.18331],[2.66386,43.18322],[2.66459,43.18316],[2.66527,43.18308],[2.66596,43.18299],[2.66662,43.18289],[2.66733,43.18278],[2.66805,43.18265],[2.66898,43.18244],[2.6699,43.18221],[2.67238,43.18148],[2.67355,43.18112],[2.67466,43.18082],[2.67565,43.1806],[2.67663,43.1804],[2.67746,43.18026],[2.6783,43.18013],[2.68032,43.17991],[2.68259,43.17981],[2.68594,43.1797],[2.68968,43.17956],[2.69107,43.17949],[2.69277,43.17934],[2.69511,43.17909],[2.6973,43.17889],[2.6993,43.17885],[2.7005,43.1789],[2.70198,43.17904],[2.70261,43.17912],[2.70312,43.17921],[2.70493,43.17949],[2.71313,43.18082],[2.71439,43.18102],[2.71704,43.18144],[2.71986,43.18188],[2.72162,43.18216],[2.72339,43.18244],[2.72376,43.1825],[2.72442,43.18261],[2.72506,43.18272],[2.72562,43.18283],[2.72601,43.1829],[2.72636,43.18297],[2.72703,43.18311],[2.72766,43.18326],[2.72827,43.1834],[2.72877,43.18353],[2.72927,43.18366],[2.72994,43.18384],[2.7305,43.18399],[2.73104,43.18415],[2.73158,43.18432],[2.7322,43.18452],[2.73262,43.18465],[2.73294,43.18476],[2.73301,43.18479],[2.73331,43.18489],[2.73399,43.18514],[2.73446,43.18531],[2.73481,43.18545],[2.73483,43.18546],[2.73528,43.18563],[2.73595,43.1859],[2.73634,43.18607],[2.73655,43.18616],[2.73675,43.18624],[2.73719,43.18644],[2.73763,43.18664],[2.7379,43.18677],[2.73816,43.18689],[2.73843,43.18702],[2.7387,43.18715],[2.73916,43.18738],[2.73945,43.18753],[2.73977,43.1877],[2.74007,43.18786],[2.74037,43.18802],[2.74074,43.18822],[2.74113,43.18844],[2.74152,43.18866],[2.74188,43.18888],[2.74244,43.18921],[2.74297,43.18955],[2.74329,43.18975],[2.74355,43.18993],[2.74408,43.19028],[2.74451,43.19058],[2.74481,43.19079],[2.74512,43.19102],[2.74535,43.19119],[2.74538,43.19121],[2.74565,43.19141],[2.74593,43.19162],[2.74613,43.19178],[2.74631,43.19192],[2.74649,43.19206],[2.74666,43.1922],[2.74697,43.19246],[2.74725,43.19269],[2.74752,43.19292],[2.74754,43.19294],[2.74791,43.19325],[2.74819,43.1935],[2.74849,43.19375],[2.74877,43.19398],[2.74905,43.19421],[2.74917,43.19431],[2.74934,43.19444],[2.74962,43.19464],[2.74988,43.19482],[2.75005,43.19493],[2.75022,43.19503],[2.75054,43.19523],[2.75076,43.19535],[2.75097,43.19546],[2.75126,43.19561],[2.7515,43.19573],[2.75173,43.19583],[2.75202,43.19596],[2.75224,43.19605],[2.75245,43.19613],[2.75274,43.19623],[2.75296,43.19631],[2.75318,43.19638],[2.75344,43.19646],[2.75361,43.19651],[2.75388,43.19658],[2.75407,43.19664],[2.75431,43.19669],[2.75474,43.19679],[2.7551,43.19687],[2.75515,43.19688],[2.75574,43.19701],[2.75688,43.19725],[2.75749,43.19739],[2.75763,43.19741],[2.75777,43.19744],[2.75924,43.19776],[2.76093,43.19812],[2.76103,43.19814],[2.76187,43.19832],[2.76214,43.19838],[2.76331,43.19863],[2.76343,43.19865],[2.7651,43.19901],[2.76659,43.19933],[2.76676,43.19937],[2.76676,43.19937],[2.76775,43.19958],[2.76822,43.19968],[2.7687,43.19978],[2.76993,43.20004],[2.77017,43.20009],[2.77222,43.20053],[2.77368,43.20084],[2.77401,43.20092],[2.77463,43.20105],[2.77605,43.20135],[2.77716,43.20159],[2.77829,43.20183],[2.77903,43.20199],[2.77992,43.20218],[2.78126,43.20245],[2.782,43.20259],[2.78391,43.20297],[2.78476,43.20314],[2.78654,43.20349],[2.78879,43.20394],[2.78987,43.20415],[2.79106,43.20439],[2.79182,43.20454],[2.79429,43.20503],[2.79677,43.20552],[2.79904,43.20597],[2.80101,43.20634],[2.80229,43.20652],[2.80344,43.20664],[2.80465,43.20671],[2.80627,43.20677],[2.80813,43.20683],[2.80998,43.20689],[2.81307,43.20699],[2.81504,43.20706],[2.82229,43.2073],[2.82715,43.20746],[2.82875,43.20751],[2.83949,43.20786],[2.84252,43.20797],[2.84725,43.20812],[2.84962,43.2082],[2.85278,43.2083],[2.85606,43.20841],[2.85796,43.20846],[2.85975,43.20847],[2.86171,43.20846],[2.86373,43.20852],[2.86509,43.20856],[2.86606,43.20861],[2.86709,43.2087],[2.86813,43.20884],[2.86939,43.20909],[2.8707,43.20942],[2.87199,43.2098],[2.87442,43.21047],[2.87741,43.2113],[2.87966,43.21194],[2.88262,43.21276],[2.88363,43.213],[2.8845,43.21314],[2.88511,43.21321],[2.88584,43.21326],[2.88662,43.21329],[2.88745,43.21327],[2.8882,43.21322],[2.88905,43.21312],[2.88992,43.21299],[2.89091,43.21275],[2.8918,43.21248],[2.89264,43.21217],[2.89339,43.21185],[2.89473,43.21125],[2.89586,43.21077],[2.89639,43.21058],[2.89696,43.2104],[2.89752,43.21025],[2.89811,43.21011],[2.8987,43.21],[2.8994,43.20991],[2.90051,43.20982],[2.90112,43.20981],[2.90174,43.20982],[2.90238,43.20987],[2.90298,43.20993],[2.90366,43.21004],[2.90415,43.21014],[2.9048,43.21029],[2.90537,43.21045],[2.9059,43.21063],[2.9066,43.2109],[2.90698,43.21107],[2.9072,43.21117],[2.90773,43.21145],[2.90857,43.21196],[2.90983,43.21279],[2.91075,43.21338],[2.91149,43.21381],[2.91216,43.21413],[2.91306,43.21451],[2.91391,43.2148],[2.9148,43.21505],[2.91566,43.21522],[2.91649,43.21535],[2.91723,43.21543],[2.91767,43.21547],[2.9181,43.21549],[2.9192,43.2155],[2.91991,43.21545],[2.92063,43.21538],[2.9216,43.21523],[2.92249,43.21506],[2.92339,43.21483],[2.9242,43.21456],[2.92663,43.21372],[2.92908,43.2129],[2.92927,43.21283],[2.93008,43.21254],[2.93072,43.21225],[2.93159,43.2118],[2.93232,43.21133],[2.93302,43.21081],[2.93366,43.21024],[2.93429,43.20953],[2.93479,43.20886],[2.93522,43.20806],[2.9355,43.20736],[2.93566,43.20682],[2.93633,43.20295],[2.93695,43.19947],[2.93782,43.19452],[2.93824,43.19212],[2.93852,43.19041],[2.93878,43.18904],[2.93896,43.18845],[2.93921,43.18771],[2.93977,43.18668],[2.94015,43.18613],[2.94084,43.18531],[2.94172,43.18449],[2.9427,43.18374],[2.94404,43.18298],[2.94531,43.18243],[2.94604,43.18219],[2.94738,43.18182],[2.94884,43.18157],[2.95588,43.1806],[2.95612,43.18057],[2.9581,43.18031],[2.95888,43.1802],[2.95976,43.18014],[2.96063,43.18012],[2.96323,43.1802],[2.96593,43.18028],[2.97258,43.18051],[2.97624,43.18062],[2.97624,43.18062],[2.97721,43.18065],[2.97827,43.18068],[2.98043,43.18075],[2.98143,43.18078],[2.98242,43.18081],[2.98314,43.18083],[2.98482,43.18089],[2.98536,43.18091],[2.98564,43.18092],[2.98589,43.18093],[2.98621,43.18095],[2.98646,43.18097],[2.98712,43.18104],[2.98756,43.1811],[2.98802,43.18118],[2.98853,43.1813],[2.9892,43.18148],[2.99013,43.18173],[2.99132,43.18207],[2.99197,43.18226],[2.99272,43.18249],[2.99364,43.18275],[2.99442,43.18298],[2.99513,43.18317],[2.99582,43.18337],[2.99619,43.18349],[2.99647,43.1836],[2.99666,43.18368],[2.99687,43.18378],[2.9972,43.18395],[2.99737,43.18405],[2.99754,43.18416],[2.99771,43.18427],[2.99787,43.18439],[2.99807,43.18454],[2.99827,43.1847],[2.99903,43.18537],[2.99936,43.18564],[2.99957,43.18582],[2.99961,43.18585],[2.99961,43.18585],[2.99999,43.18617],[2.99999,43.18617],[3.00026,43.1864],[3.00026,43.1864],[3.00049,43.18658],[3.00069,43.18672],[3.00086,43.18685],[3.00105,43.18699],[3.00109,43.18702],[3.00109,43.18702],[3.00158,43.18741],[3.00177,43.18757],[3.00196,43.18771],[3.00231,43.18798],[3.0026,43.18819],[3.00272,43.18828],[3.00284,43.18838],[3.00304,43.18854],[3.00304,43.18854],[3.00305,43.18854],[3.00333,43.18878],[3.00333,43.18878],[3.00353,43.18896],[3.00373,43.18914],[3.00411,43.18949],[3.00419,43.18956],[3.00468,43.18999],[3.00503,43.19028],[3.00553,43.1907],[3.00553,43.1907]]},"properties":{"name":"Ligne de Bordeaux-Saint-Jean à Sète-Ville, Ligne de Bordeaux-Saint-Jean à Sète-Ville"}}]}