{"type":"FeatureCollection","features":[{"type":"Feature","geometry":{"type":"LineString","coordinates":[[3.69653,43.41277],[3.69656,43.41278],[3.69715,43.4129],[3.69785,43.41304],[3.69817,43.41312],[3.69897,43.41329],[3.70068,43.41368],[3.70098,43.41374],[3.70125,43.4138],[3.70168,43.41389],[3.70181,43.41393],[3.70208,43.414],[3.70222,43.41403],[3.70253,43.4141],[3.70365,43.41432],[3.7039,43.41437],[3.7039,43.41437],[3.70414,43.41443],[3.70433,43.41447],[3.70449,43.41451],[3.70463,43.41455],[3.70482,43.41459],[3.7053,43.41468],[3.70536,43.41469],[3.70536,43.41469],[3.70705,43.41503],[3.70791,43.4152],[3.70877,43.41536],[3.71215,43.41603],[3.71621,43.41683],[3.71832,43.41725],[3.72042,43.41766],[3.72203,43.41798],[3.72315,43.4182],[3.72317,43.4182],[3.7233,43.41823],[3.72411,43.41839],[3.72611,43.41879],[3.72809,43.41918],[3.7297,43.41949],[3.73044,43.41965],[3.73044,43.41965],[3.73144,43.41986],[3.73184,43.41995],[3.73249,43.42009],[3.7328,43.42016],[3.73311,43.42023],[3.73342,43.42031],[3.73372,43.42038],[3.73432,43.42054],[3.73476,43.42066],[3.73506,43.42075],[3.73548,43.42088],[3.73686,43.42133],[3.73808,43.42173],[3.73948,43.4222],[3.74031,43.42248],[3.74145,43.42284],[3.74274,43.42325],[3.74368,43.42355],[3.74419,43.42371],[3.74452,43.42383],[3.74482,43.42393],[3.74514,43.42406],[3.7456,43.42424],[3.74598,43.4244],[3.74631,43.42455],[3.74682,43.4248],[3.74717,43.42497],[3.74746,43.42512],[3.74787,43.42534],[3.74825,43.42556],[3.74869,43.42582],[3.74898,43.42599],[3.7491,43.42607],[3.7491,43.42607],[3.7494,43.42626],[3.74987,43.42657],[3.75013,43.42676],[3.75036,43.42692],[3.75057,43.42707],[3.75077,43.42722],[3.75106,43.42744],[3.75139,43.42771],[3.75162,43.4279],[3.75198,43.42821],[3.7522,43.42841],[3.75256,43.42874],[3.75292,43.4291],[3.75322,43.42941],[3.75346,43.42966],[3.75379,43.43004],[3.75407,43.43037],[3.75427,43.43062],[3.75451,43.43092],[3.75471,43.43118],[3.7549,43.43144],[3.75512,43.43176],[3.75532,43.43207],[3.75554,43.43241],[3.75574,43.43274],[3.75591,43.43306],[3.75615,43.4335],[3.75634,43.43389],[3.75651,43.43426],[3.75664,43.43457],[3.75675,43.43486],[3.75689,43.43524],[3.757,43.43557],[3.75712,43.43592],[3.7572,43.43622],[3.75728,43.43651],[3.75737,43.43692],[3.75746,43.43735],[3.75758,43.43798],[3.7578,43.43911],[3.75793,43.4398],[3.75797,43.43997],[3.7582,43.44116],[3.75832,43.4418],[3.75832,43.4418],[3.7585,43.44267],[3.75864,43.44338],[3.75865,43.44347],[3.75877,43.44405],[3.75884,43.44441],[3.75893,43.44487],[3.75894,43.44493],[3.75897,43.44508],[3.75904,43.44543],[3.75905,43.44548],[3.75906,43.44556],[3.75912,43.44583],[3.75918,43.44611],[3.75925,43.44644],[3.75938,43.44697],[3.75949,43.44741],[3.75959,43.44778],[3.75969,43.44812],[3.75978,43.44841],[3.75986,43.44867],[3.75999,43.44904],[3.76012,43.44939],[3.76027,43.44981],[3.76044,43.45021],[3.76084,43.45111],[3.76107,43.45159],[3.76129,43.45205],[3.76153,43.45253],[3.7617,43.45283],[3.76189,43.45318],[3.76209,43.45351],[3.76226,43.45378],[3.76249,43.45413],[3.76273,43.45449],[3.76297,43.45482],[3.76347,43.4555],[3.76398,43.45618],[3.76509,43.45769],[3.76676,43.45993],[3.76769,43.46119],[3.76862,43.46245],[3.77122,43.46594],[3.77256,43.46775],[3.77382,43.46945],[3.77517,43.47127],[3.77611,43.47253],[3.77868,43.47599],[3.78086,43.47893],[3.78396,43.4831],[3.78625,43.48618],[3.78739,43.48772],[3.78852,43.48924],[3.78882,43.48964],[3.7894,43.49043],[3.78964,43.49074],[3.79028,43.49161],[3.79093,43.49245],[3.79102,43.49256],[3.79124,43.49284],[3.79131,43.49292],[3.79178,43.4935],[3.79224,43.49403],[3.79267,43.49453],[3.79313,43.49503],[3.79364,43.49558],[3.79439,43.49635],[3.79512,43.49709],[3.79557,43.49754],[3.79605,43.49798],[3.79642,43.4983],[3.79731,43.49905],[3.79805,43.49967],[3.7987,43.5002],[3.79943,43.50077],[3.79944,43.50078],[3.80013,43.50131],[3.80045,43.50155],[3.80054,43.50161],[3.80136,43.50222],[3.80304,43.50345],[3.80372,43.50395],[3.80593,43.50558],[3.80732,43.50661],[3.80735,43.50663],[3.80908,43.5079],[3.81081,43.50918],[3.81208,43.51012],[3.81422,43.51169],[3.81639,43.51329],[3.81852,43.51486],[3.82007,43.516],[3.82279,43.518],[3.8272,43.52125],[3.82942,43.52289],[3.83163,43.52451],[3.83248,43.52514],[3.8336,43.52597],[3.83596,43.5277],[3.83741,43.52877],[3.83748,43.52882],[3.83794,43.52916],[3.8384,43.5295],[3.83898,43.52995],[3.83968,43.53053],[3.84016,43.53094],[3.8406,43.53134],[3.84095,43.53167],[3.8413,43.532],[3.84174,43.53244],[3.84213,43.53285],[3.84246,43.5332],[3.84282,43.5336],[3.84316,43.53398],[3.84362,43.53454],[3.84405,43.53509],[3.84427,43.53537],[3.84443,43.53559],[3.84482,43.53614],[3.84521,43.53672],[3.84623,43.53827],[3.84726,43.53982],[3.84847,43.54164],[3.84984,43.54372],[3.84985,43.54373],[3.85017,43.54423],[3.85033,43.5445],[3.85048,43.54474],[3.85087,43.54546],[3.85121,43.54607],[3.85148,43.54651],[3.85205,43.54737],[3.85237,43.54786],[3.85271,43.54838],[3.85295,43.54872],[3.8532,43.54905],[3.85375,43.54975],[3.85397,43.55003],[3.85417,43.5503],[3.85448,43.55073],[3.85539,43.55211],[3.85649,43.55377],[3.85685,43.55431],[3.85685,43.55431],[3.85796,43.55597],[3.85796,43.55597],[3.85848,43.55677],[3.85929,43.55799],[3.86051,43.55983],[3.86091,43.56045],[3.86211,43.56224],[3.8626,43.56298],[3.86326,43.56398],[3.8633,43.56404],[3.86363,43.56454],[3.86404,43.56515],[3.86439,43.56569],[3.86486,43.5664],[3.86544,43.56726],[3.86726,43.57001],[3.868,43.57113],[3.86874,43.57225],[3.87043,43.5748],[3.87117,43.57591],[3.87156,43.5765],[3.87255,43.57799],[3.87353,43.57947],[3.87355,43.57951],[3.87385,43.57999],[3.87402,43.58027],[3.87418,43.58054],[3.87427,43.5807],[3.87436,43.58087],[3.87449,43.58111],[3.87461,43.58133],[3.8747,43.58151],[3.8748,43.5817],[3.87488,43.58186],[3.87501,43.58213],[3.87512,43.58237],[3.87521,43.58257],[3.87531,43.58279],[3.87539,43.58299],[3.87551,43.58326],[3.87558,43.58343],[3.87564,43.5836],[3.87574,43.58386],[3.87583,43.58409],[3.87592,43.58436],[3.87595,43.58444],[3.87604,43.58469],[3.87612,43.58493],[3.87622,43.58529],[3.87632,43.58564],[3.87638,43.58585],[3.87638,43.58585],[3.87646,43.58615],[3.87652,43.58644],[3.87658,43.5867],[3.87664,43.58695],[3.87673,43.58741],[3.87677,43.58765],[3.87685,43.58813],[3.87691,43.5886],[3.87695,43.58894],[3.87699,43.5893],[3.87703,43.58986],[3.87705,43.59032],[3.87706,43.59069],[3.87707,43.59107],[3.87708,43.59218],[3.8771,43.59344],[3.87711,43.59421],[3.87711,43.59436],[3.87713,43.59541],[3.87715,43.59651],[3.87715,43.59684],[3.87715,43.59686],[3.87715,43.59686],[3.87716,43.59719],[3.87716,43.59755],[3.87717,43.59802],[3.87717,43.59802],[3.87719,43.59989],[3.8772,43.60011],[3.8772,43.60019],[3.87721,43.60027],[3.87722,43.60034],[3.87724,43.60046],[3.87726,43.60057],[3.87728,43.60069],[3.8773,43.60078],[3.87735,43.60094],[3.87739,43.60108],[3.87745,43.60123],[3.87748,43.60131],[3.87748,43.60131],[3.8777,43.60177],[3.87775,43.60187],[3.87778,43.60192],[3.87778,43.60192],[3.87785,43.60203],[3.87792,43.60211],[3.87797,43.60218],[3.87807,43.60229],[3.87826,43.60251],[3.87843,43.60271],[3.87864,43.60291],[3.87882,43.60308],[3.87891,43.60316],[3.879,43.60324],[3.87919,43.60339],[3.87929,43.60347],[3.87958,43.60367],[3.88035,43.60422],[3.88035,43.60422]]},"properties":{"name":"Ligne de Tarascon à Sète, 810000"}}]}