{"type":"FeatureCollection","features":[{"type":"Feature","geometry":{"type":"LineString","coordinates":[[4.36621,43.8324],[4.36635,43.83252],[4.36671,43.83282],[4.36756,43.83353],[4.36785,43.83379],[4.36822,43.83413],[4.36828,43.83419],[4.36867,43.83455],[4.36905,43.83486],[4.36966,43.83537],[4.37006,43.8357],[4.37053,43.8361],[4.37098,43.83648],[4.37127,43.83673],[4.37127,43.83673],[4.37154,43.83701],[4.37167,43.83716],[4.37181,43.83732],[4.37192,43.83744],[4.37192,43.83744],[4.37229,43.83786],[4.37245,43.83805],[4.37259,43.83824],[4.3728,43.83854],[4.37298,43.83886],[4.37315,43.83916],[4.37335,43.83955],[4.37343,43.83973],[4.37347,43.83983],[4.37368,43.84031],[4.37385,43.84066],[4.37398,43.84089],[4.37405,43.84102],[4.37417,43.84121],[4.37421,43.84127],[4.37421,43.84127],[4.37457,43.84178],[4.37482,43.84209],[4.37523,43.84254],[4.37587,43.84318],[4.37623,43.84349],[4.37673,43.84387],[4.37684,43.84396],[4.37684,43.84396],[4.37733,43.84429],[4.3776,43.84444],[4.37787,43.8446],[4.37834,43.84484],[4.37864,43.84499],[4.37898,43.84514],[4.37921,43.84524],[4.37957,43.84536],[4.38005,43.84552],[4.38056,43.84566],[4.38124,43.84582],[4.38175,43.84595],[4.38292,43.84623],[4.38351,43.84635],[4.38408,43.84648],[4.38408,43.84648],[4.38609,43.8469],[4.38619,43.84692],[4.38628,43.84693],[4.38704,43.84708],[4.38704,43.84708],[4.3879,43.84724],[4.38842,43.84734],[4.38983,43.84755],[4.38992,43.84756],[4.39105,43.8477],[4.39182,43.84779],[4.39259,43.84786],[4.39379,43.84794],[4.39477,43.84801],[4.39567,43.84806],[4.39595,43.84808],[4.39651,43.8481],[4.39651,43.8481],[4.39698,43.84811],[4.39772,43.84811],[4.398,43.8481],[4.3988,43.84804],[4.39946,43.84797],[4.40011,43.84789],[4.40106,43.84776],[4.40106,43.84776],[4.40242,43.84757],[4.40491,43.84723],[4.40751,43.84683],[4.40817,43.84672],[4.40869,43.84662],[4.40945,43.84645],[4.4101,43.84627],[4.41186,43.84577],[4.41231,43.84565],[4.41276,43.84554],[4.41337,43.84541],[4.41403,43.84529],[4.41493,43.84515],[4.41573,43.84502],[4.41593,43.84498],[4.41645,43.84487],[4.41693,43.84476],[4.41702,43.84473],[4.41744,43.84462],[4.41794,43.84448],[4.4182,43.8444],[4.4182,43.8444],[4.41979,43.84393],[4.41979,43.84393],[4.42673,43.84189],[4.42864,43.84133],[4.433,43.84004],[4.43582,43.83921],[4.43648,43.83901],[4.43728,43.83877],[4.44768,43.83571],[4.4684,43.82961],[4.47377,43.82802],[4.47389,43.82799],[4.47887,43.82652],[4.47953,43.82632],[4.48181,43.82566],[4.48325,43.82522],[4.48416,43.82496],[4.48539,43.82459],[4.48655,43.82425],[4.4876,43.82394],[4.4876,43.82394],[4.48933,43.82343],[4.48973,43.82331],[4.4905,43.82309],[4.49158,43.82277],[4.49264,43.82246],[4.49374,43.82213],[4.49374,43.82213],[4.49456,43.82189],[4.49525,43.82169],[4.49607,43.82144],[4.49724,43.8211],[4.49795,43.82088],[4.49866,43.82065],[4.49937,43.82042],[4.50007,43.82017],[4.50086,43.81989],[4.50152,43.81964],[4.50217,43.81938],[4.50272,43.81916],[4.50419,43.81853],[4.505,43.81816],[4.5058,43.81778],[4.50731,43.81702],[4.50745,43.81696],[4.50843,43.81643],[4.50973,43.81568],[4.51061,43.81515],[4.5111,43.81484],[4.51158,43.81452],[4.51213,43.81415],[4.51283,43.81367],[4.51343,43.81325],[4.51413,43.81273],[4.51461,43.81235],[4.51505,43.81201],[4.51551,43.81164],[4.51597,43.81126],[4.51691,43.81045],[4.51808,43.80946],[4.5216,43.80644],[4.52322,43.80505],[4.5234,43.8049],[4.52516,43.8034],[4.52955,43.79965],[4.53264,43.79699],[4.53356,43.79621],[4.53375,43.79604],[4.53761,43.79274],[4.53903,43.79152],[4.53982,43.7909],[4.54061,43.79036],[4.54136,43.78993],[4.54213,43.78955],[4.54279,43.78929],[4.54354,43.78901],[4.54423,43.78881],[4.54468,43.78869],[4.54517,43.78858],[4.54561,43.7885],[4.54619,43.7884],[4.54681,43.78832],[4.54748,43.78826],[4.54815,43.78824],[4.54881,43.78823],[4.54949,43.78825],[4.55014,43.78829],[4.55082,43.78837],[4.55148,43.78847],[4.55213,43.7886],[4.55277,43.78876],[4.55339,43.78893],[4.55401,43.78912],[4.55461,43.78934],[4.55517,43.7896],[4.55572,43.78987],[4.55628,43.79016],[4.55679,43.79049],[4.55727,43.79082],[4.55773,43.79116],[4.55963,43.79272],[4.56065,43.79355],[4.56115,43.79395],[4.56165,43.7943],[4.56214,43.79462],[4.56267,43.79493],[4.56318,43.7952],[4.56375,43.79545],[4.56433,43.7957],[4.56492,43.79591],[4.56553,43.79611],[4.56616,43.79628],[4.56693,43.79647],[4.56766,43.79664],[4.56917,43.79697],[4.57064,43.79732],[4.5714,43.79748],[4.57218,43.79762],[4.57295,43.79776],[4.57372,43.79787],[4.57453,43.79797],[4.57532,43.79805],[4.57636,43.79817],[4.57648,43.79818],[4.57649,43.79818],[4.57757,43.79829],[4.57857,43.79841],[4.57963,43.79856],[4.58069,43.79877],[4.58175,43.79901],[4.58203,43.79908],[4.58221,43.79913],[4.58278,43.79928],[4.58388,43.79959],[4.58508,43.80002],[4.58518,43.80006],[4.58526,43.80009],[4.5863,43.8005],[4.58661,43.80063],[4.58691,43.80076],[4.58728,43.80093],[4.58764,43.8011],[4.58821,43.80138],[4.5885,43.80153],[4.58878,43.80168],[4.58909,43.80186],[4.5894,43.80203],[4.5897,43.80221],[4.58999,43.80238],[4.59117,43.80311],[4.59293,43.8042],[4.59577,43.80594],[4.59615,43.80618],[4.59654,43.80641],[4.5974,43.80687],[4.59789,43.8071],[4.59862,43.80744],[4.59917,43.80767],[4.59966,43.80785],[4.60073,43.80824],[4.60137,43.80846],[4.60153,43.80851],[4.60161,43.80853],[4.60213,43.80868],[4.60281,43.80888],[4.60355,43.80906],[4.60431,43.80921],[4.60451,43.80925],[4.60475,43.8093],[4.60508,43.80936],[4.60582,43.80949],[4.60651,43.80959],[4.60708,43.80966],[4.60792,43.80975],[4.60873,43.80982],[4.61028,43.80988],[4.61068,43.80989],[4.61107,43.80989],[4.61188,43.80987],[4.61257,43.80984],[4.61343,43.80979],[4.61409,43.80973],[4.61483,43.80964],[4.6156,43.80954],[4.61637,43.80941],[4.61713,43.80927],[4.61792,43.80912],[4.61937,43.8088],[4.62037,43.8086],[4.62162,43.80832],[4.62276,43.80803],[4.62294,43.80799],[4.62294,43.80799],[4.62339,43.80786],[4.62354,43.80782],[4.6244,43.80753],[4.62527,43.80721],[4.62696,43.8065],[4.62743,43.8063],[4.62956,43.80538],[4.63033,43.80509],[4.63098,43.80487],[4.63159,43.80469],[4.63221,43.8045],[4.63221,43.8045],[4.63303,43.80428],[4.63362,43.80412],[4.63431,43.80395],[4.63533,43.80374],[4.6356,43.80369],[4.63639,43.80354],[4.63714,43.80344],[4.63787,43.80335],[4.64031,43.80306],[4.64203,43.80288],[4.64311,43.80276],[4.64365,43.80268],[4.64398,43.80264],[4.64486,43.80251],[4.64616,43.80234],[4.64672,43.80228],[4.64715,43.80223],[4.64799,43.80213],[4.65108,43.80176],[4.65111,43.80176],[4.65225,43.80162],[4.65225,43.80162],[4.65321,43.80151],[4.65414,43.8014],[4.65422,43.8014],[4.65422,43.8014],[4.65499,43.80131],[4.65542,43.80125],[4.65574,43.80122],[4.65606,43.8012],[4.65642,43.8012],[4.65668,43.80121],[4.65693,43.80122],[4.65706,43.80123],[4.6571,43.80124],[4.6571,43.80124]]},"properties":{"name":"810000, Ligne de Tarascon à Sète"}}]}